{
"type": "FeatureCollection",
"name": "demand",
"crs": { "type": "name", "properties": { "name": "urn:ogc:def:crs:OGC:1.3:CRS84" } },
"xy_coordinate_resolution": 1e-06,
"features": [
{ "type": "Feature", "properties": { "node_id": "J1", "demand_lps": 0.6422 }, "geometry": { "type": "Polygon", "coordinates": [ [ [ 72.90913, 19.136556 ], [ 72.91007, 19.135319 ], [ 72.910353, 19.134376 ], [ 72.908572, 19.134024 ], [ 72.908571, 19.134028 ], [ 72.908547, 19.134163 ], [ 72.908538, 19.134299 ], [ 72.908544, 19.134436 ], [ 72.908567, 19.134685 ], [ 72.908575, 19.134732 ], [ 72.908539, 19.134785 ], [ 72.908475, 19.134903 ], [ 72.908424, 19.135027 ], [ 72.908386, 19.135155 ], [ 72.908361, 19.135286 ], [ 72.908349, 19.135418 ], [ 72.908352, 19.135551 ], [ 72.908368, 19.135683 ], [ 72.908398, 19.135813 ], [ 72.908441, 19.13594 ], [ 72.908496, 19.136061 ], [ 72.908565, 19.136178 ], [ 72.908644, 19.136287 ], [ 72.908735, 19.136388 ], [ 72.908836, 19.13648 ], [ 72.908945, 19.136563 ], [ 72.909001, 19.136597 ], [ 72.909001, 19.136597 ], [ 72.90913, 19.136556 ] ] ] } },
{ "type": "Feature", "properties": { "node_id": "J2", "demand_lps": 0.1099 }, "geometry": { "type": "Polygon", "coordinates": [ [ [ 72.90913, 19.136556 ], [ 72.909987, 19.136378 ], [ 72.910234, 19.13609 ], [ 72.91007, 19.135319 ], [ 72.90913, 19.136556 ] ] ] } },
{ "type": "Feature", "properties": { "node_id": "J3", "demand_lps": 0.3013 }, "geometry": { "type": "Polygon", "coordinates": [ [ [ 72.910353, 19.134376 ], [ 72.91007, 19.135319 ], [ 72.910234, 19.13609 ], [ 72.911553, 19.135095 ], [ 72.911588, 19.134825 ], [ 72.910911, 19.134383 ], [ 72.910353, 19.134376 ] ] ] } },
{ "type": "Feature", "properties": { "node_id": "J4", "demand_lps": 0.7372 }, "geometry": { "type": "Polygon", "coordinates": [ [ [ 72.910353, 19.134376 ], [ 72.910911, 19.134383 ], [ 72.911224, 19.132128 ], [ 72.911212, 19.13212 ], [ 72.910509, 19.132711 ], [ 72.909559, 19.132428 ], [ 72.909061, 19.132457 ], [ 72.909027, 19.132509 ], [ 72.909021, 19.132521 ], [ 72.909277, 19.13311 ], [ 72.908854, 19.133233 ], [ 72.908856, 19.133279 ], [ 72.908875, 19.13341 ], [ 72.908882, 19.133436 ], [ 72.908802, 19.133532 ], [ 72.908725, 19.133647 ], [ 72.90866, 19.133769 ], [ 72.908609, 19.133897 ], [ 72.908572, 19.134024 ], [ 72.910353, 19.134376 ] ] ] } },
{ "type": "Feature", "properties": { "node_id": "J5", "demand_lps": 0.2696 }, "geometry": { "type": "Polygon", "coordinates": [ [ [ 72.910491, 19.137075 ], [ 72.910428, 19.136569 ], [ 72.909987, 19.136378 ], [ 72.90913, 19.136556 ], [ 72.909001, 19.136597 ], [ 72.908973, 19.136678 ], [ 72.908942, 19.136807 ], [ 72.908924, 19.136939 ], [ 72.90892, 19.137072 ], [ 72.908929, 19.137192 ], [ 72.910447, 19.137595 ], [ 72.910491, 19.137075 ] ] ] } },
{ "type": "Feature", "properties": { "node_id": "J6", "demand_lps": 0.0668 }, "geometry": { "type": "Polygon", "coordinates": [ [ [ 72.910491, 19.137075 ], [ 72.911811, 19.136758 ], [ 72.910428, 19.136569 ], [ 72.910491, 19.137075 ] ] ] } },
{ "type": "Feature", "properties": { "node_id": "J7", "demand_lps": 0.2747 }, "geometry": { "type": "Polygon", "coordinates": [ [ [ 72.910447, 19.137595 ], [ 72.911732, 19.137937 ], [ 72.911787, 19.137873 ], [ 72.911865, 19.137763 ], [ 72.91193, 19.137645 ], [ 72.911969, 19.137556 ], [ 72.911993, 19.137606 ], [ 72.912062, 19.137723 ], [ 72.912069, 19.137733 ], [ 72.912267, 19.13741 ], [ 72.911853, 19.136763 ], [ 72.911811, 19.136758 ], [ 72.910491, 19.137075 ], [ 72.910447, 19.137595 ] ] ] } },
{ "type": "Feature", "properties": { "node_id": "J8", "demand_lps": 0.3221 }, "geometry": { "type": "Polygon", "coordinates": [ [ [ 72.910428, 19.136569 ], [ 72.911811, 19.136758 ], [ 72.911853, 19.136763 ], [ 72.911553, 19.135095 ], [ 72.910234, 19.13609 ], [ 72.909987, 19.136378 ], [ 72.910428, 19.136569 ] ] ] } },
{ "type": "Feature", "properties": { "node_id": "J9", "demand_lps": 0.0048 }, "geometry": { "type": "Polygon", "coordinates": [ [ [ 72.911902, 19.12509 ], [ 72.911893, 19.125084 ], [ 72.911458, 19.125073 ], [ 72.911964, 19.125198 ], [ 72.911902, 19.12509 ] ] ] } },
{ "type": "Feature", "properties": { "node_id": "J10", "demand_lps": 0.1562 }, "geometry": { "type": "Polygon", "coordinates": [ [ [ 72.911893, 19.125084 ], [ 72.911799, 19.124935 ], [ 72.910245, 19.12412 ], [ 72.910241, 19.124126 ], [ 72.91017, 19.12424 ], [ 72.910111, 19.124361 ], [ 72.910065, 19.124486 ], [ 72.910032, 19.124616 ], [ 72.910013, 19.124747 ], [ 72.910007, 19.12488 ], [ 72.910008, 19.124891 ], [ 72.910459, 19.124826 ], [ 72.911458, 19.125073 ], [ 72.911893, 19.125084 ] ] ] } },
{ "type": "Feature", "properties": { "node_id": "J11", "demand_lps": 0.1627 }, "geometry": { "type": "Polygon", "coordinates": [ [ [ 72.911799, 19.124935 ], [ 72.911812, 19.123941 ], [ 72.911452, 19.12393 ], [ 72.910275, 19.124081 ], [ 72.910245, 19.12412 ], [ 72.911799, 19.124935 ] ] ] } },
{ "type": "Feature", "properties": { "node_id": "J12", "demand_lps": 0.0439 }, "geometry": { "type": "Polygon", "coordinates": [ [ [ 72.911902, 19.12509 ], [ 72.912023, 19.124869 ], [ 72.912094, 19.124631 ], [ 72.911924, 19.123962 ], [ 72.911835, 19.123941 ], [ 72.911812, 19.123941 ], [ 72.911799, 19.124935 ], [ 72.911893, 19.125084 ], [ 72.911902, 19.12509 ] ] ] } },
{ "type": "Feature", "properties": { "node_id": "J13", "demand_lps": 0.472 }, "geometry": { "type": "Polygon", "coordinates": [ [ [ 72.912115, 19.134559 ], [ 72.912044, 19.132674 ], [ 72.911376, 19.132084 ], [ 72.911376, 19.132085 ], [ 72.911362, 19.132089 ], [ 72.91124, 19.132138 ], [ 72.911224, 19.132128 ], [ 72.910911, 19.134383 ], [ 72.911588, 19.134825 ], [ 72.912108, 19.13467 ], [ 72.912115, 19.134559 ] ] ] } },
{ "type": "Feature", "properties": { "node_id": "J14", "demand_lps": 0.0065 }, "geometry": { "type": "Polygon", "coordinates": [ [ [ 72.912193, 19.124704 ], [ 72.912094, 19.124631 ], [ 72.912023, 19.124869 ], [ 72.912246, 19.124858 ], [ 72.912248, 19.124793 ], [ 72.912193, 19.124704 ] ] ] } },
{ "type": "Feature", "properties": { "node_id": "J15", "demand_lps": 0.019 }, "geometry": { "type": "Polygon", "coordinates": [ [ [ 72.911902, 19.12509 ], [ 72.911964, 19.125198 ], [ 72.912007, 19.125208 ], [ 72.912342, 19.125049 ], [ 72.912246, 19.124858 ], [ 72.912023, 19.124869 ], [ 72.911902, 19.12509 ] ] ] } },
{ "type": "Feature", "properties": { "node_id": "J16", "demand_lps": 0.0072 }, "geometry": { "type": "Polygon", "coordinates": [ [ [ 72.912246, 19.124858 ], [ 72.912342, 19.125049 ], [ 72.912407, 19.12504 ], [ 72.912455, 19.12491 ], [ 72.912406, 19.124797 ], [ 72.912248, 19.124793 ], [ 72.912246, 19.124858 ] ] ] } },
{ "type": "Feature", "properties": { "node_id": "J17", "demand_lps": 0.0031 }, "geometry": { "type": "Polygon", "coordinates": [ [ [ 72.912248, 19.124793 ], [ 72.912406, 19.124797 ], [ 72.912407, 19.124749 ], [ 72.912407, 19.124713 ], [ 72.912193, 19.124704 ], [ 72.912248, 19.124793 ] ] ] } },
{ "type": "Feature", "properties": { "node_id": "J18", "demand_lps": 0.0418 }, "geometry": { "type": "Polygon", "coordinates": [ [ [ 72.912094, 19.124631 ], [ 72.912193, 19.124704 ], [ 72.912407, 19.124713 ], [ 72.912469, 19.124602 ], [ 72.912158, 19.124017 ], [ 72.911924, 19.123962 ], [ 72.912094, 19.124631 ] ] ] } },
{ "type": "Feature", "properties": { "node_id": "J19", "demand_lps": 0.0222 }, "geometry": { "type": "Polygon", "coordinates": [ [ [ 72.912687, 19.125222 ], [ 72.912407, 19.12504 ], [ 72.912342, 19.125049 ], [ 72.912007, 19.125208 ], [ 72.912655, 19.125369 ], [ 72.912662, 19.125374 ], [ 72.912687, 19.125222 ] ] ] } },
{ "type": "Feature", "properties": { "node_id": "J20", "demand_lps": 0.0866 }, "geometry": { "type": "Polygon", "coordinates": [ [ [ 72.912044, 19.132674 ], [ 72.912115, 19.134559 ], [ 72.91249, 19.13306 ], [ 72.91249, 19.132883 ], [ 72.912044, 19.132674 ] ] ] } },
{ "type": "Feature", "properties": { "node_id": "J21", "demand_lps": 0.0044 }, "geometry": { "type": "Polygon", "coordinates": [ [ [ 72.912406, 19.124797 ], [ 72.912455, 19.12491 ], [ 72.912681, 19.124773 ], [ 72.912407, 19.124749 ], [ 72.912406, 19.124797 ] ] ] } },
{ "type": "Feature", "properties": { "node_id": "J22", "demand_lps": 0.0066 }, "geometry": { "type": "Polygon", "coordinates": [ [ [ 72.91276, 19.124728 ], [ 72.91276, 19.124726 ], [ 72.912469, 19.124602 ], [ 72.912407, 19.124713 ], [ 72.912407, 19.124749 ], [ 72.912681, 19.124773 ], [ 72.91276, 19.124728 ] ] ] } },
{ "type": "Feature", "properties": { "node_id": "J23", "demand_lps": 0.0688 }, "geometry": { "type": "Polygon", "coordinates": [ [ [ 72.912469, 19.124602 ], [ 72.91276, 19.124726 ], [ 72.913176, 19.124283 ], [ 72.912696, 19.124142 ], [ 72.912158, 19.124017 ], [ 72.912469, 19.124602 ] ] ] } },
{ "type": "Feature", "properties": { "node_id": "J24", "demand_lps": 0.025 }, "geometry": { "type": "Polygon", "coordinates": [ [ [ 72.912455, 19.12491 ], [ 72.912407, 19.12504 ], [ 72.912687, 19.125222 ], [ 72.912857, 19.125092 ], [ 72.91276, 19.124728 ], [ 72.912681, 19.124773 ], [ 72.912455, 19.12491 ] ] ] } },
{ "type": "Feature", "properties": { "node_id": "J25", "demand_lps": 0.15 }, "geometry": { "type": "Polygon", "coordinates": [ [ [ 72.912837, 19.134629 ], [ 72.912982, 19.134257 ], [ 72.91249, 19.13306 ], [ 72.912115, 19.134559 ], [ 72.912108, 19.13467 ], [ 72.912837, 19.134629 ] ] ] } },
{ "type": "Feature", "properties": { "node_id": "J26", "demand_lps": 0.1206 }, "geometry": { "type": "Polygon", "coordinates": [ [ [ 72.91249, 19.13306 ], [ 72.912982, 19.134257 ], [ 72.913264, 19.133687 ], [ 72.913129, 19.132917 ], [ 72.91249, 19.132883 ], [ 72.91249, 19.13306 ] ] ] } },
{ "type": "Feature", "properties": { "node_id": "J27", "demand_lps": 0.6309 }, "geometry": { "type": "Polygon", "coordinates": [ [ [ 72.912108, 19.13467 ], [ 72.911588, 19.134825 ], [ 72.911553, 19.135095 ], [ 72.911853, 19.136763 ], [ 72.912267, 19.13741 ], [ 72.912811, 19.137286 ], [ 72.913149, 19.1348 ], [ 72.912837, 19.134629 ], [ 72.912108, 19.13467 ] ] ] } },
{ "type": "Feature", "properties": { "node_id": "J28", "demand_lps": 0.5514 }, "geometry": { "type": "Polygon", "coordinates": [ [ [ 72.912044, 19.132674 ], [ 72.91249, 19.132883 ], [ 72.913129, 19.132917 ], [ 72.91331, 19.132712 ], [ 72.913544, 19.132382 ], [ 72.913743, 19.132031 ], [ 72.912797, 19.131093 ], [ 72.912797, 19.131093 ], [ 72.912704, 19.131091 ], [ 72.912565, 19.131102 ], [ 72.912427, 19.131126 ], [ 72.912293, 19.131162 ], [ 72.912162, 19.131211 ], [ 72.912038, 19.131271 ], [ 72.91192, 19.131343 ], [ 72.911811, 19.131426 ], [ 72.91171, 19.131518 ], [ 72.911619, 19.131619 ], [ 72.91154, 19.131729 ], [ 72.911471, 19.131845 ], [ 72.911416, 19.131967 ], [ 72.911376, 19.132084 ], [ 72.912044, 19.132674 ] ] ] } },
{ "type": "Feature", "properties": { "node_id": "J29", "demand_lps": 0.038 }, "geometry": { "type": "Polygon", "coordinates": [ [ [ 72.913216, 19.125332 ], [ 72.913208, 19.125106 ], [ 72.912857, 19.125092 ], [ 72.912687, 19.125222 ], [ 72.912662, 19.125374 ], [ 72.912998, 19.125604 ], [ 72.913216, 19.125332 ] ] ] } },
{ "type": "Feature", "properties": { "node_id": "J30", "demand_lps": 0.1046 }, "geometry": { "type": "Polygon", "coordinates": [ [ [ 72.912857, 19.125092 ], [ 72.913208, 19.125106 ], [ 72.913898, 19.124502 ], [ 72.913899, 19.124494 ], [ 72.913176, 19.124283 ], [ 72.91276, 19.124726 ], [ 72.91276, 19.124728 ], [ 72.912857, 19.125092 ] ] ] } },
{ "type": "Feature", "properties": { "node_id": "J31", "demand_lps": 0.0226 }, "geometry": { "type": "Polygon", "coordinates": [ [ [ 72.913386, 19.125466 ], [ 72.913216, 19.125332 ], [ 72.912998, 19.125604 ], [ 72.913385, 19.12587 ], [ 72.913386, 19.125466 ] ] ] } },
{ "type": "Feature", "properties": { "node_id": "J32", "demand_lps": 0.3816 }, "geometry": { "type": "Polygon", "coordinates": [ [ [ 72.912811, 19.137286 ], [ 72.913405, 19.137269 ], [ 72.913835, 19.136701 ], [ 72.913908, 19.135539 ], [ 72.913739, 19.134955 ], [ 72.913149, 19.1348 ], [ 72.912811, 19.137286 ] ] ] } },
{ "type": "Feature", "properties": { "node_id": "J33", "demand_lps": 0.0972 }, "geometry": { "type": "Polygon", "coordinates": [ [ [ 72.913216, 19.125332 ], [ 72.913386, 19.125466 ], [ 72.914045, 19.125358 ], [ 72.91407, 19.125315 ], [ 72.913898, 19.124502 ], [ 72.913208, 19.125106 ], [ 72.913216, 19.125332 ] ] ] } },
{ "type": "Feature", "properties": { "node_id": "J34", "demand_lps": 0.0605 }, "geometry": { "type": "Polygon", "coordinates": [ [ [ 72.913385, 19.12587 ], [ 72.913657, 19.126057 ], [ 72.913876, 19.125909 ], [ 72.914045, 19.125358 ], [ 72.913386, 19.125466 ], [ 72.913385, 19.12587 ] ] ] } },
{ "type": "Feature", "properties": { "node_id": "J35", "demand_lps": 0.3643 }, "geometry": { "type": "Polygon", "coordinates": [ [ [ 72.913839, 19.1388 ], [ 72.913735, 19.137599 ], [ 72.913567, 19.137391 ], [ 72.913405, 19.137269 ], [ 72.912811, 19.137286 ], [ 72.912267, 19.13741 ], [ 72.912069, 19.137733 ], [ 72.912142, 19.137832 ], [ 72.912175, 19.137869 ], [ 72.912142, 19.13792 ], [ 72.912083, 19.138031 ], [ 72.912156, 19.13805 ], [ 72.913763, 19.138925 ], [ 72.913839, 19.1388 ] ] ] } },
{ "type": "Feature", "properties": { "node_id": "J36", "demand_lps": 0.0879 }, "geometry": { "type": "Polygon", "coordinates": [ [ [ 72.913264, 19.133687 ], [ 72.913997, 19.133479 ], [ 72.913906, 19.133329 ], [ 72.91331, 19.132712 ], [ 72.913129, 19.132917 ], [ 72.913264, 19.133687 ] ] ] } },
{ "type": "Feature", "properties": { "node_id": "J37", "demand_lps": 0.0335 }, "geometry": { "type": "Polygon", "coordinates": [ [ [ 72.913934, 19.128973 ], [ 72.914083, 19.1283 ], [ 72.913842, 19.128183 ], [ 72.913729, 19.129016 ], [ 72.913934, 19.128973 ] ] ] } },
{ "type": "Feature", "properties": { "node_id": "J38", "demand_lps": 0.0362 }, "geometry": { "type": "Polygon", "coordinates": [ [ [ 72.913544, 19.132382 ], [ 72.91331, 19.132712 ], [ 72.913906, 19.133329 ], [ 72.913783, 19.13292 ], [ 72.913544, 19.132382 ] ] ] } },
{ "type": "Feature", "properties": { "node_id": "J39", "demand_lps": 0.0169 }, "geometry": { "type": "Polygon", "coordinates": [ [ [ 72.913997, 19.133479 ], [ 72.914274, 19.133475 ], [ 72.913783, 19.13292 ], [ 72.913906, 19.133329 ], [ 72.913997, 19.133479 ] ] ] } },
{ "type": "Feature", "properties": { "node_id": "J40", "demand_lps": 0.413 }, "geometry": { "type": "Polygon", "coordinates": [ [ [ 72.913149, 19.1348 ], [ 72.913739, 19.134955 ], [ 72.914447, 19.134675 ], [ 72.914991, 19.133494 ], [ 72.914274, 19.133475 ], [ 72.913997, 19.133479 ], [ 72.913264, 19.133687 ], [ 72.912982, 19.134257 ], [ 72.912837, 19.134629 ], [ 72.913149, 19.1348 ] ] ] } },
{ "type": "Feature", "properties": { "node_id": "J41", "demand_lps": 0.2841 }, "geometry": { "type": "Polygon", "coordinates": [ [ [ 72.913783, 19.13292 ], [ 72.914274, 19.133475 ], [ 72.914991, 19.133494 ], [ 72.91526, 19.133245 ], [ 72.915275, 19.133087 ], [ 72.914137, 19.132085 ], [ 72.913743, 19.132031 ], [ 72.913544, 19.132382 ], [ 72.913783, 19.13292 ] ] ] } },
{ "type": "Feature", "properties": { "node_id": "J42", "demand_lps": 0.0332 }, "geometry": { "type": "Polygon", "coordinates": [ [ [ 72.914083, 19.1283 ], [ 72.914152, 19.12826 ], [ 72.914234, 19.127968 ], [ 72.914026, 19.127658 ], [ 72.913916, 19.127637 ], [ 72.913842, 19.128183 ], [ 72.914083, 19.1283 ] ] ] } },
{ "type": "Feature", "properties": { "node_id": "J43", "demand_lps": 0.0205 }, "geometry": { "type": "Polygon", "coordinates": [ [ [ 72.914162, 19.127069 ], [ 72.914096, 19.12673 ], [ 72.913843, 19.126688 ], [ 72.913877, 19.127131 ], [ 72.914162, 19.127069 ] ] ] } },
{ "type": "Feature", "properties": { "node_id": "J44", "demand_lps": 0.0214 }, "geometry": { "type": "Polygon", "coordinates": [ [ [ 72.914096, 19.12673 ], [ 72.914404, 19.126591 ], [ 72.914203, 19.126475 ], [ 72.913825, 19.126455 ], [ 72.913843, 19.126688 ], [ 72.914096, 19.12673 ] ] ] } },
{ "type": "Feature", "properties": { "node_id": "J45", "demand_lps": 0.0362 }, "geometry": { "type": "Polygon", "coordinates": [ [ [ 72.914203, 19.126475 ], [ 72.914104, 19.126017 ], [ 72.913876, 19.125909 ], [ 72.913657, 19.126057 ], [ 72.913802, 19.126157 ], [ 72.913825, 19.126455 ], [ 72.914203, 19.126475 ] ] ] } },
{ "type": "Feature", "properties": { "node_id": "J46", "demand_lps": 0.1461 }, "geometry": { "type": "Polygon", "coordinates": [ [ [ 72.913735, 19.13003 ], [ 72.914663, 19.129502 ], [ 72.914653, 19.129123 ], [ 72.913934, 19.128973 ], [ 72.913729, 19.129016 ], [ 72.913587, 19.130062 ], [ 72.913735, 19.13003 ] ] ] } },
{ "type": "Feature", "properties": { "node_id": "J47", "demand_lps": 0.0342 }, "geometry": { "type": "Polygon", "coordinates": [ [ [ 72.913877, 19.127131 ], [ 72.913916, 19.127637 ], [ 72.913916, 19.127637 ], [ 72.914026, 19.127658 ], [ 72.914269, 19.127545 ], [ 72.914184, 19.127071 ], [ 72.914162, 19.127069 ], [ 72.913877, 19.127131 ] ] ] } },
{ "type": "Feature", "properties": { "node_id": "J48", "demand_lps": 0.0301 }, "geometry": { "type": "Polygon", "coordinates": [ [ [ 72.914162, 19.127069 ], [ 72.914184, 19.127071 ], [ 72.914332, 19.127041 ], [ 72.914619, 19.126715 ], [ 72.914545, 19.126602 ], [ 72.914404, 19.126591 ], [ 72.914096, 19.12673 ], [ 72.914162, 19.127069 ] ] ] } },
{ "type": "Feature", "properties": { "node_id": "J49", "demand_lps": 0.0378 }, "geometry": { "type": "Polygon", "coordinates": [ [ [ 72.914404, 19.126591 ], [ 72.914545, 19.126602 ], [ 72.91459, 19.126298 ], [ 72.914528, 19.126123 ], [ 72.914516, 19.126111 ], [ 72.914104, 19.126017 ], [ 72.914203, 19.126475 ], [ 72.914404, 19.126591 ] ] ] } },
{ "type": "Feature", "properties": { "node_id": "J50", "demand_lps": 0.3603 }, "geometry": { "type": "Polygon", "coordinates": [ [ [ 72.913743, 19.132031 ], [ 72.914137, 19.132085 ], [ 72.914534, 19.131623 ], [ 72.914838, 19.131159 ], [ 72.914648, 19.130728 ], [ 72.913484, 19.130693 ], [ 72.91308, 19.130947 ], [ 72.912803, 19.130844 ], [ 72.912796, 19.131061 ], [ 72.912797, 19.131093 ], [ 72.913743, 19.132031 ] ] ] } },
{ "type": "Feature", "properties": { "node_id": "J51", "demand_lps": 0.1341 }, "geometry": { "type": "Polygon", "coordinates": [ [ [ 72.914648, 19.130728 ], [ 72.914731, 19.130531 ], [ 72.914756, 19.130259 ], [ 72.913735, 19.13003 ], [ 72.913587, 19.130062 ], [ 72.913502, 19.130681 ], [ 72.913484, 19.130693 ], [ 72.914648, 19.130728 ] ] ] } },
{ "type": "Feature", "properties": { "node_id": "J52", "demand_lps": 0.024 }, "geometry": { "type": "Polygon", "coordinates": [ [ [ 72.914269, 19.127545 ], [ 72.914545, 19.127507 ], [ 72.914593, 19.127432 ], [ 72.914332, 19.127041 ], [ 72.914184, 19.127071 ], [ 72.914269, 19.127545 ] ] ] } },
{ "type": "Feature", "properties": { "node_id": "J53", "demand_lps": 0.1057 }, "geometry": { "type": "Polygon", "coordinates": [ [ [ 72.913934, 19.128973 ], [ 72.914653, 19.129123 ], [ 72.914833, 19.12897 ], [ 72.914801, 19.128728 ], [ 72.914579, 19.128369 ], [ 72.914152, 19.12826 ], [ 72.914083, 19.1283 ], [ 72.913934, 19.128973 ] ] ] } },
{ "type": "Feature", "properties": { "node_id": "J54", "demand_lps": 0.0673 }, "geometry": { "type": "Polygon", "coordinates": [ [ [ 72.913876, 19.125909 ], [ 72.914104, 19.126017 ], [ 72.914516, 19.126111 ], [ 72.914581, 19.125792 ], [ 72.91423, 19.125368 ], [ 72.91407, 19.125315 ], [ 72.914045, 19.125358 ], [ 72.913876, 19.125909 ] ] ] } },
{ "type": "Feature", "properties": { "node_id": "J55", "demand_lps": 0.0872 }, "geometry": { "type": "Polygon", "coordinates": [ [ [ 72.913735, 19.13003 ], [ 72.914756, 19.130259 ], [ 72.914912, 19.129958 ], [ 72.914663, 19.129502 ], [ 72.913735, 19.13003 ] ] ] } },
{ "type": "Feature", "properties": { "node_id": "J56", "demand_lps": 0.0394 }, "geometry": { "type": "Polygon", "coordinates": [ [ [ 72.914026, 19.127658 ], [ 72.914234, 19.127968 ], [ 72.914553, 19.127946 ], [ 72.914667, 19.127794 ], [ 72.914545, 19.127507 ], [ 72.914269, 19.127545 ], [ 72.914026, 19.127658 ] ] ] } },
{ "type": "Feature", "properties": { "node_id": "J57", "demand_lps": 0.1002 }, "geometry": { "type": "Polygon", "coordinates": [ [ [ 72.914357, 19.138679 ], [ 72.914403, 19.138433 ], [ 72.914081, 19.137782 ], [ 72.913735, 19.137599 ], [ 72.913839, 19.1388 ], [ 72.914074, 19.138797 ], [ 72.914357, 19.138679 ] ] ] } },
{ "type": "Feature", "properties": { "node_id": "J58", "demand_lps": 0.0332 }, "geometry": { "type": "Polygon", "coordinates": [ [ [ 72.914074, 19.138797 ], [ 72.913839, 19.1388 ], [ 72.913763, 19.138925 ], [ 72.913775, 19.138931 ], [ 72.91416, 19.139322 ], [ 72.914297, 19.139298 ], [ 72.914303, 19.13915 ], [ 72.914224, 19.138894 ], [ 72.914074, 19.138797 ] ] ] } },
{ "type": "Feature", "properties": { "node_id": "J59", "demand_lps": 0.0281 }, "geometry": { "type": "Polygon", "coordinates": [ [ [ 72.914152, 19.12826 ], [ 72.914579, 19.128369 ], [ 72.914616, 19.128192 ], [ 72.914553, 19.127946 ], [ 72.914234, 19.127968 ], [ 72.914152, 19.12826 ] ] ] } },
{ "type": "Feature", "properties": { "node_id": "J60", "demand_lps": 0.0017 }, "geometry": { "type": "Polygon", "coordinates": [ [ [ 72.914227, 19.138895 ], [ 72.914224, 19.138894 ], [ 72.914303, 19.13915 ], [ 72.914334, 19.139025 ], [ 72.914227, 19.138895 ] ] ] } },
{ "type": "Feature", "properties": { "node_id": "J61", "demand_lps": 0.0043 }, "geometry": { "type": "Polygon", "coordinates": [ [ [ 72.914297, 19.139298 ], [ 72.91436, 19.139299 ], [ 72.914421, 19.139052 ], [ 72.914334, 19.139025 ], [ 72.914303, 19.13915 ], [ 72.914297, 19.139298 ] ] ] } },
{ "type": "Feature", "properties": { "node_id": "J62", "demand_lps": 0.1618 }, "geometry": { "type": "Polygon", "coordinates": [ [ [ 72.915299, 19.139543 ], [ 72.91436, 19.139299 ], [ 72.914297, 19.139298 ], [ 72.91416, 19.139322 ], [ 72.914708, 19.139879 ], [ 72.915113, 19.140666 ], [ 72.915173, 19.14063 ], [ 72.915283, 19.140548 ], [ 72.915384, 19.140456 ], [ 72.915475, 19.140355 ], [ 72.915555, 19.140246 ], [ 72.915586, 19.140193 ], [ 72.915586, 19.140193 ], [ 72.915299, 19.139543 ] ] ] } },
{ "type": "Feature", "properties": { "node_id": "J63", "demand_lps": 0.0035 }, "geometry": { "type": "Polygon", "coordinates": [ [ [ 72.914334, 19.139025 ], [ 72.914421, 19.139052 ], [ 72.914426, 19.139048 ], [ 72.914455, 19.138946 ], [ 72.914453, 19.138944 ], [ 72.914393, 19.138928 ], [ 72.914227, 19.138895 ], [ 72.914334, 19.139025 ] ] ] } },
{ "type": "Feature", "properties": { "node_id": "J64", "demand_lps": 0.0108 }, "geometry": { "type": "Polygon", "coordinates": [ [ [ 72.914074, 19.138797 ], [ 72.914224, 19.138894 ], [ 72.914227, 19.138895 ], [ 72.914393, 19.138928 ], [ 72.914465, 19.138713 ], [ 72.914357, 19.138679 ], [ 72.914074, 19.138797 ] ] ] } },
{ "type": "Feature", "properties": { "node_id": "J65", "demand_lps": 0.0027 }, "geometry": { "type": "Polygon", "coordinates": [ [ [ 72.914453, 19.138944 ], [ 72.914525, 19.13873 ], [ 72.914465, 19.138713 ], [ 72.914393, 19.138928 ], [ 72.914453, 19.138944 ] ] ] } },
{ "type": "Feature", "properties": { "node_id": "J66", "demand_lps": 0.0952 }, "geometry": { "type": "Polygon", "coordinates": [ [ [ 72.913835, 19.136701 ], [ 72.914108, 19.136624 ], [ 72.914475, 19.136039 ], [ 72.914492, 19.135783 ], [ 72.913908, 19.135539 ], [ 72.913835, 19.136701 ] ] ] } },
{ "type": "Feature", "properties": { "node_id": "J67", "demand_lps": 0.0421 }, "geometry": { "type": "Polygon", "coordinates": [ [ [ 72.914332, 19.127041 ], [ 72.914593, 19.127432 ], [ 72.914702, 19.127372 ], [ 72.914859, 19.127043 ], [ 72.91475, 19.126771 ], [ 72.914619, 19.126715 ], [ 72.914332, 19.127041 ] ] ] } },
{ "type": "Feature", "properties": { "node_id": "J68", "demand_lps": 0.004 }, "geometry": { "type": "Polygon", "coordinates": [ [ [ 72.91458, 19.135813 ], [ 72.914492, 19.135783 ], [ 72.914475, 19.136039 ], [ 72.914567, 19.136014 ], [ 72.91458, 19.135813 ] ] ] } },
{ "type": "Feature", "properties": { "node_id": "J69", "demand_lps": 0.0979 }, "geometry": { "type": "Polygon", "coordinates": [ [ [ 72.913898, 19.124502 ], [ 72.91407, 19.125315 ], [ 72.91423, 19.125368 ], [ 72.914351, 19.125365 ], [ 72.914695, 19.125135 ], [ 72.914815, 19.124762 ], [ 72.913899, 19.124494 ], [ 72.913898, 19.124502 ] ] ] } },
{ "type": "Feature", "properties": { "node_id": "J70", "demand_lps": 0.0146 }, "geometry": { "type": "Polygon", "coordinates": [ [ [ 72.914108, 19.136624 ], [ 72.914235, 19.136592 ], [ 72.914554, 19.136158 ], [ 72.914578, 19.13612 ], [ 72.914567, 19.136014 ], [ 72.914475, 19.136039 ], [ 72.914108, 19.136624 ] ] ] } },
{ "type": "Feature", "properties": { "node_id": "J71", "demand_lps": 0.0459 }, "geometry": { "type": "Polygon", "coordinates": [ [ [ 72.91436, 19.139299 ], [ 72.915299, 19.139543 ], [ 72.915284, 19.139451 ], [ 72.915243, 19.13926 ], [ 72.914426, 19.139048 ], [ 72.914421, 19.139052 ], [ 72.91436, 19.139299 ] ] ] } },
{ "type": "Feature", "properties": { "node_id": "J72", "demand_lps": 0.0243 }, "geometry": { "type": "Polygon", "coordinates": [ [ [ 72.914581, 19.125792 ], [ 72.914766, 19.12572 ], [ 72.914767, 19.125717 ], [ 72.914688, 19.125408 ], [ 72.914665, 19.125402 ], [ 72.914351, 19.125365 ], [ 72.91423, 19.125368 ], [ 72.914581, 19.125792 ] ] ] } },
{ "type": "Feature", "properties": { "node_id": "J73", "demand_lps": 0.0169 }, "geometry": { "type": "Polygon", "coordinates": [ [ [ 72.914426, 19.139048 ], [ 72.915243, 19.13926 ], [ 72.915224, 19.139144 ], [ 72.914455, 19.138946 ], [ 72.914426, 19.139048 ] ] ] } },
{ "type": "Feature", "properties": { "node_id": "J74", "demand_lps": 0.0091 }, "geometry": { "type": "Polygon", "coordinates": [ [ [ 72.914465, 19.138713 ], [ 72.914525, 19.13873 ], [ 72.914537, 19.138729 ], [ 72.914584, 19.138483 ], [ 72.914553, 19.138474 ], [ 72.914403, 19.138433 ], [ 72.914357, 19.138679 ], [ 72.914465, 19.138713 ] ] ] } },
{ "type": "Feature", "properties": { "node_id": "J75", "demand_lps": 0.0093 }, "geometry": { "type": "Polygon", "coordinates": [ [ [ 72.914695, 19.125135 ], [ 72.914351, 19.125365 ], [ 72.914665, 19.125402 ], [ 72.914732, 19.125174 ], [ 72.914695, 19.125135 ] ] ] } },
{ "type": "Feature", "properties": { "node_id": "J76", "demand_lps": 0.0335 }, "geometry": { "type": "Polygon", "coordinates": [ [ [ 72.914455, 19.138946 ], [ 72.915224, 19.139144 ], [ 72.91521, 19.138904 ], [ 72.914537, 19.138729 ], [ 72.914525, 19.13873 ], [ 72.914453, 19.138944 ], [ 72.914455, 19.138946 ] ] ] } },
{ "type": "Feature", "properties": { "node_id": "J77", "demand_lps": 0.0396 }, "geometry": { "type": "Polygon", "coordinates": [ [ [ 72.914553, 19.138474 ], [ 72.914658, 19.137942 ], [ 72.914081, 19.137782 ], [ 72.914403, 19.138433 ], [ 72.914553, 19.138474 ] ] ] } },
{ "type": "Feature", "properties": { "node_id": "J78", "demand_lps": 0.0055 }, "geometry": { "type": "Polygon", "coordinates": [ [ [ 72.914584, 19.138483 ], [ 72.914605, 19.138478 ], [ 72.914709, 19.137956 ], [ 72.914658, 19.137942 ], [ 72.914553, 19.138474 ], [ 72.914584, 19.138483 ] ] ] } },
{ "type": "Feature", "properties": { "node_id": "J79", "demand_lps": 0.0128 }, "geometry": { "type": "Polygon", "coordinates": [ [ [ 72.914688, 19.125408 ], [ 72.915109, 19.125327 ], [ 72.91508, 19.12523 ], [ 72.914732, 19.125174 ], [ 72.914665, 19.125402 ], [ 72.914688, 19.125408 ] ] ] } },
{ "type": "Feature", "properties": { "node_id": "J80", "demand_lps": 0.0234 }, "geometry": { "type": "Polygon", "coordinates": [ [ [ 72.914732, 19.125174 ], [ 72.91508, 19.12523 ], [ 72.915005, 19.124817 ], [ 72.914815, 19.124762 ], [ 72.914695, 19.125135 ], [ 72.914732, 19.125174 ] ] ] } },
{ "type": "Feature", "properties": { "node_id": "J81", "demand_lps": 0.018 }, "geometry": { "type": "Polygon", "coordinates": [ [ [ 72.914516, 19.126111 ], [ 72.914528, 19.126123 ], [ 72.914934, 19.125951 ], [ 72.914766, 19.12572 ], [ 72.914581, 19.125792 ], [ 72.914516, 19.126111 ] ] ] } },
{ "type": "Feature", "properties": { "node_id": "J82", "demand_lps": 0.0052 }, "geometry": { "type": "Polygon", "coordinates": [ [ [ 72.914567, 19.136014 ], [ 72.914578, 19.13612 ], [ 72.914709, 19.136073 ], [ 72.91462, 19.135815 ], [ 72.91458, 19.135813 ], [ 72.914567, 19.136014 ] ] ] } },
{ "type": "Feature", "properties": { "node_id": "J83", "demand_lps": 0.2292 }, "geometry": { "type": "Polygon", "coordinates": [ [ [ 72.914492, 19.135783 ], [ 72.91458, 19.135813 ], [ 72.91462, 19.135815 ], [ 72.914701, 19.135799 ], [ 72.915298, 19.135543 ], [ 72.915376, 19.135313 ], [ 72.91522, 19.135174 ], [ 72.914447, 19.134675 ], [ 72.913739, 19.134955 ], [ 72.913908, 19.135539 ], [ 72.914492, 19.135783 ] ] ] } },
{ "type": "Feature", "properties": { "node_id": "J84", "demand_lps": 0.0352 }, "geometry": { "type": "Polygon", "coordinates": [ [ [ 72.915265, 19.13865 ], [ 72.914605, 19.138478 ], [ 72.914584, 19.138483 ], [ 72.914537, 19.138729 ], [ 72.91521, 19.138904 ], [ 72.915265, 19.13865 ] ] ] } },
{ "type": "Feature", "properties": { "node_id": "J85", "demand_lps": 0.0248 }, "geometry": { "type": "Polygon", "coordinates": [ [ [ 72.914616, 19.128192 ], [ 72.915094, 19.128018 ], [ 72.915112, 19.127982 ], [ 72.914845, 19.12783 ], [ 72.914667, 19.127794 ], [ 72.914553, 19.127946 ], [ 72.914616, 19.128192 ] ] ] } },
{ "type": "Feature", "properties": { "node_id": "J86", "demand_lps": 0.002 }, "geometry": { "type": "Polygon", "coordinates": [ [ [ 72.914554, 19.136158 ], [ 72.914739, 19.136157 ], [ 72.914739, 19.136153 ], [ 72.914722, 19.136077 ], [ 72.914709, 19.136073 ], [ 72.914578, 19.13612 ], [ 72.914554, 19.136158 ] ] ] } },
{ "type": "Feature", "properties": { "node_id": "J87", "demand_lps": 0.0192 }, "geometry": { "type": "Polygon", "coordinates": [ [ [ 72.914235, 19.136592 ], [ 72.914423, 19.136578 ], [ 72.914762, 19.136264 ], [ 72.914739, 19.136157 ], [ 72.914554, 19.136158 ], [ 72.914235, 19.136592 ] ] ] } },
{ "type": "Feature", "properties": { "node_id": "J88", "demand_lps": 0.0252 }, "geometry": { "type": "Polygon", "coordinates": [ [ [ 72.914767, 19.125717 ], [ 72.915283, 19.125488 ], [ 72.915109, 19.125327 ], [ 72.914688, 19.125408 ], [ 72.914767, 19.125717 ] ] ] } },
{ "type": "Feature", "properties": { "node_id": "J89", "demand_lps": 0.0691 }, "geometry": { "type": "Polygon", "coordinates": [ [ [ 72.915269, 19.138093 ], [ 72.915013, 19.138016 ], [ 72.91491, 19.137989 ], [ 72.914709, 19.137956 ], [ 72.914605, 19.138478 ], [ 72.915265, 19.13865 ], [ 72.915315, 19.138521 ], [ 72.915269, 19.138093 ] ] ] } },
{ "type": "Feature", "properties": { "node_id": "J90", "demand_lps": 0.0366 }, "geometry": { "type": "Polygon", "coordinates": [ [ [ 72.914579, 19.128369 ], [ 72.914801, 19.128728 ], [ 72.915048, 19.128252 ], [ 72.915094, 19.128018 ], [ 72.914616, 19.128192 ], [ 72.914579, 19.128369 ] ] ] } },
{ "type": "Feature", "properties": { "node_id": "J91", "demand_lps": 0.005 }, "geometry": { "type": "Polygon", "coordinates": [ [ [ 72.91462, 19.135815 ], [ 72.914709, 19.136073 ], [ 72.914722, 19.136077 ], [ 72.914813, 19.136048 ], [ 72.914701, 19.135799 ], [ 72.91462, 19.135815 ] ] ] } },
{ "type": "Feature", "properties": { "node_id": "J92", "demand_lps": 0.0225 }, "geometry": { "type": "Polygon", "coordinates": [ [ [ 72.91459, 19.126298 ], [ 72.914983, 19.126257 ], [ 72.915028, 19.125962 ], [ 72.914934, 19.125951 ], [ 72.914528, 19.126123 ], [ 72.91459, 19.126298 ] ] ] } },
{ "type": "Feature", "properties": { "node_id": "J93", "demand_lps": 0.0259 }, "geometry": { "type": "Polygon", "coordinates": [ [ [ 72.914545, 19.127507 ], [ 72.914667, 19.127794 ], [ 72.914845, 19.12783 ], [ 72.915006, 19.127482 ], [ 72.915006, 19.127481 ], [ 72.914702, 19.127372 ], [ 72.914593, 19.127432 ], [ 72.914545, 19.127507 ] ] ] } },
{ "type": "Feature", "properties": { "node_id": "J94", "demand_lps": 0.1558 }, "geometry": { "type": "Polygon", "coordinates": [ [ [ 72.913567, 19.137391 ], [ 72.914719, 19.137247 ], [ 72.914853, 19.137201 ], [ 72.914748, 19.136718 ], [ 72.91458, 19.136605 ], [ 72.914423, 19.136578 ], [ 72.914235, 19.136592 ], [ 72.914108, 19.136624 ], [ 72.913835, 19.136701 ], [ 72.913405, 19.137269 ], [ 72.913567, 19.137391 ] ] ] } },
{ "type": "Feature", "properties": { "node_id": "J95", "demand_lps": 0.0025 }, "geometry": { "type": "Polygon", "coordinates": [ [ [ 72.914739, 19.136153 ], [ 72.914965, 19.136081 ], [ 72.914813, 19.136048 ], [ 72.914722, 19.136077 ], [ 72.914739, 19.136153 ] ] ] } },
{ "type": "Feature", "properties": { "node_id": "J96", "demand_lps": 0.0448 }, "geometry": { "type": "Polygon", "coordinates": [ [ [ 72.914545, 19.126602 ], [ 72.914619, 19.126715 ], [ 72.91475, 19.126771 ], [ 72.915052, 19.126653 ], [ 72.915158, 19.126407 ], [ 72.915112, 19.126356 ], [ 72.914983, 19.126257 ], [ 72.91459, 19.126298 ], [ 72.914545, 19.126602 ] ] ] } },
{ "type": "Feature", "properties": { "node_id": "J97", "demand_lps": 0.0042 }, "geometry": { "type": "Polygon", "coordinates": [ [ [ 72.914739, 19.136157 ], [ 72.914762, 19.136264 ], [ 72.91489, 19.136222 ], [ 72.914975, 19.136083 ], [ 72.914965, 19.136081 ], [ 72.914739, 19.136153 ], [ 72.914739, 19.136157 ] ] ] } },
{ "type": "Feature", "properties": { "node_id": "J98", "demand_lps": 0.0316 }, "geometry": { "type": "Polygon", "coordinates": [ [ [ 72.914766, 19.12572 ], [ 72.914934, 19.125951 ], [ 72.915028, 19.125962 ], [ 72.915248, 19.125858 ], [ 72.915298, 19.125827 ], [ 72.915353, 19.125525 ], [ 72.915283, 19.125488 ], [ 72.914767, 19.125717 ], [ 72.914766, 19.12572 ] ] ] } },
{ "type": "Feature", "properties": { "node_id": "J99", "demand_lps": 0.0335 }, "geometry": { "type": "Polygon", "coordinates": [ [ [ 72.915298, 19.135543 ], [ 72.914701, 19.135799 ], [ 72.914813, 19.136048 ], [ 72.914965, 19.136081 ], [ 72.914975, 19.136083 ], [ 72.915145, 19.13599 ], [ 72.915298, 19.135586 ], [ 72.915298, 19.135543 ] ] ] } },
{ "type": "Feature", "properties": { "node_id": "J100", "demand_lps": 0.119 }, "geometry": { "type": "Polygon", "coordinates": [ [ [ 72.913735, 19.137599 ], [ 72.914081, 19.137782 ], [ 72.914658, 19.137942 ], [ 72.914709, 19.137956 ], [ 72.91491, 19.137989 ], [ 72.914876, 19.137504 ], [ 72.914868, 19.137468 ], [ 72.914719, 19.137247 ], [ 72.913567, 19.137391 ], [ 72.913735, 19.137599 ] ] ] } },
{ "type": "Feature", "properties": { "node_id": "J101", "demand_lps": 0.0216 }, "geometry": { "type": "Polygon", "coordinates": [ [ [ 72.914853, 19.137201 ], [ 72.914976, 19.13718 ], [ 72.915182, 19.136931 ], [ 72.91508, 19.13686 ], [ 72.914748, 19.136718 ], [ 72.914853, 19.137201 ] ] ] } },
{ "type": "Feature", "properties": { "node_id": "J102", "demand_lps": 0.0211 }, "geometry": { "type": "Polygon", "coordinates": [ [ [ 72.91458, 19.136605 ], [ 72.914985, 19.13647 ], [ 72.915018, 19.136448 ], [ 72.91489, 19.136222 ], [ 72.914762, 19.136264 ], [ 72.914423, 19.136578 ], [ 72.91458, 19.136605 ] ] ] } },
{ "type": "Feature", "properties": { "node_id": "J103", "demand_lps": 0.0203 }, "geometry": { "type": "Polygon", "coordinates": [ [ [ 72.914702, 19.127372 ], [ 72.915006, 19.127481 ], [ 72.915096, 19.127124 ], [ 72.914859, 19.127043 ], [ 72.914702, 19.127372 ] ] ] } },
{ "type": "Feature", "properties": { "node_id": "J104", "demand_lps": 0.0311 }, "geometry": { "type": "Polygon", "coordinates": [ [ [ 72.915112, 19.127982 ], [ 72.915254, 19.127928 ], [ 72.91534, 19.127575 ], [ 72.915006, 19.127482 ], [ 72.914845, 19.12783 ], [ 72.915112, 19.127982 ] ] ] } },
{ "type": "Feature", "properties": { "node_id": "J105", "demand_lps": 0.0079 }, "geometry": { "type": "Polygon", "coordinates": [ [ [ 72.914945, 19.137521 ], [ 72.914876, 19.137504 ], [ 72.91491, 19.137989 ], [ 72.915013, 19.138016 ], [ 72.914945, 19.137521 ] ] ] } },
{ "type": "Feature", "properties": { "node_id": "J106", "demand_lps": 0.0005 }, "geometry": { "type": "Polygon", "coordinates": [ [ [ 72.914876, 19.137504 ], [ 72.914945, 19.137521 ], [ 72.914946, 19.137517 ], [ 72.914939, 19.137486 ], [ 72.914868, 19.137468 ], [ 72.914876, 19.137504 ] ] ] } },
{ "type": "Feature", "properties": { "node_id": "J107", "demand_lps": 0.015 }, "geometry": { "type": "Polygon", "coordinates": [ [ [ 72.914719, 19.137247 ], [ 72.914868, 19.137468 ], [ 72.914939, 19.137486 ], [ 72.91515, 19.137415 ], [ 72.914976, 19.13718 ], [ 72.914853, 19.137201 ], [ 72.914719, 19.137247 ] ] ] } },
{ "type": "Feature", "properties": { "node_id": "J108", "demand_lps": 0.0014 }, "geometry": { "type": "Polygon", "coordinates": [ [ [ 72.914939, 19.137486 ], [ 72.914946, 19.137517 ], [ 72.915173, 19.137439 ], [ 72.91515, 19.137415 ], [ 72.914939, 19.137486 ] ] ] } },
{ "type": "Feature", "properties": { "node_id": "J109", "demand_lps": 0.0179 }, "geometry": { "type": "Polygon", "coordinates": [ [ [ 72.914748, 19.136718 ], [ 72.91508, 19.13686 ], [ 72.914985, 19.13647 ], [ 72.91458, 19.136605 ], [ 72.914748, 19.136718 ] ] ] } },
{ "type": "Feature", "properties": { "node_id": "J110", "demand_lps": 0.0465 }, "geometry": { "type": "Polygon", "coordinates": [ [ [ 72.915013, 19.138016 ], [ 72.915269, 19.138093 ], [ 72.915531, 19.137796 ], [ 72.915173, 19.137439 ], [ 72.914946, 19.137517 ], [ 72.914945, 19.137521 ], [ 72.915013, 19.138016 ] ] ] } },
{ "type": "Feature", "properties": { "node_id": "J111", "demand_lps": 0.0328 }, "geometry": { "type": "Polygon", "coordinates": [ [ [ 72.915006, 19.127481 ], [ 72.915006, 19.127482 ], [ 72.91534, 19.127575 ], [ 72.915487, 19.127436 ], [ 72.915467, 19.12714 ], [ 72.915096, 19.127124 ], [ 72.915006, 19.127481 ] ] ] } },
{ "type": "Feature", "properties": { "node_id": "J112", "demand_lps": 0.0134 }, "geometry": { "type": "Polygon", "coordinates": [ [ [ 72.914983, 19.126257 ], [ 72.915112, 19.126356 ], [ 72.915248, 19.125858 ], [ 72.915028, 19.125962 ], [ 72.914983, 19.126257 ] ] ] } },
{ "type": "Feature", "properties": { "node_id": "J113", "demand_lps": 0.0204 }, "geometry": { "type": "Polygon", "coordinates": [ [ [ 72.91489, 19.136222 ], [ 72.915018, 19.136448 ], [ 72.915263, 19.136407 ], [ 72.915145, 19.13599 ], [ 72.914975, 19.136083 ], [ 72.91489, 19.136222 ] ] ] } },
{ "type": "Feature", "properties": { "node_id": "J114", "demand_lps": 0.0468 }, "geometry": { "type": "Polygon", "coordinates": [ [ [ 72.914859, 19.127043 ], [ 72.915096, 19.127124 ], [ 72.915467, 19.12714 ], [ 72.915532, 19.127026 ], [ 72.915274, 19.126771 ], [ 72.915052, 19.126653 ], [ 72.91475, 19.126771 ], [ 72.914859, 19.127043 ] ] ] } },
{ "type": "Feature", "properties": { "node_id": "J115", "demand_lps": 0.0225 }, "geometry": { "type": "Polygon", "coordinates": [ [ [ 72.915248, 19.125858 ], [ 72.915112, 19.126356 ], [ 72.915158, 19.126407 ], [ 72.915355, 19.126349 ], [ 72.915462, 19.126074 ], [ 72.915298, 19.125827 ], [ 72.915248, 19.125858 ] ] ] } },
{ "type": "Feature", "properties": { "node_id": "J116", "demand_lps": 0.2844 }, "geometry": { "type": "Polygon", "coordinates": [ [ [ 72.915275, 19.133087 ], [ 72.915302, 19.133063 ], [ 72.916037, 19.131903 ], [ 72.916037, 19.131902 ], [ 72.914534, 19.131623 ], [ 72.914137, 19.132085 ], [ 72.915275, 19.133087 ] ] ] } },
{ "type": "Feature", "properties": { "node_id": "J117", "demand_lps": 0.0457 }, "geometry": { "type": "Polygon", "coordinates": [ [ [ 72.915182, 19.136931 ], [ 72.91565, 19.136801 ], [ 72.915675, 19.136677 ], [ 72.915263, 19.136407 ], [ 72.915018, 19.136448 ], [ 72.914985, 19.13647 ], [ 72.91508, 19.13686 ], [ 72.915182, 19.136931 ] ] ] } },
{ "type": "Feature", "properties": { "node_id": "J118", "demand_lps": 0.1535 }, "geometry": { "type": "Polygon", "coordinates": [ [ [ 72.914534, 19.131623 ], [ 72.916037, 19.131902 ], [ 72.916119, 19.131701 ], [ 72.91592, 19.131228 ], [ 72.914838, 19.131159 ], [ 72.914534, 19.131623 ] ] ] } },
{ "type": "Feature", "properties": { "node_id": "J119", "demand_lps": 0.0576 }, "geometry": { "type": "Polygon", "coordinates": [ [ [ 72.914833, 19.12897 ], [ 72.915368, 19.12895 ], [ 72.915295, 19.128357 ], [ 72.915048, 19.128252 ], [ 72.914801, 19.128728 ], [ 72.914833, 19.12897 ] ] ] } },
{ "type": "Feature", "properties": { "node_id": "J120", "demand_lps": 0.1557 }, "geometry": { "type": "Polygon", "coordinates": [ [ [ 72.914838, 19.131159 ], [ 72.91592, 19.131228 ], [ 72.916074, 19.130597 ], [ 72.914731, 19.130531 ], [ 72.914648, 19.130728 ], [ 72.914838, 19.131159 ] ] ] } },
{ "type": "Feature", "properties": { "node_id": "J121", "demand_lps": 0.0241 }, "geometry": { "type": "Polygon", "coordinates": [ [ [ 72.915094, 19.128018 ], [ 72.915048, 19.128252 ], [ 72.915295, 19.128357 ], [ 72.915518, 19.12811 ], [ 72.91545, 19.128048 ], [ 72.915254, 19.127928 ], [ 72.915112, 19.127982 ], [ 72.915094, 19.128018 ] ] ] } },
{ "type": "Feature", "properties": { "node_id": "J122", "demand_lps": 0.1651 }, "geometry": { "type": "Polygon", "coordinates": [ [ [ 72.914731, 19.130531 ], [ 72.916074, 19.130597 ], [ 72.916353, 19.129989 ], [ 72.914912, 19.129958 ], [ 72.914756, 19.130259 ], [ 72.914731, 19.130531 ] ] ] } },
{ "type": "Feature", "properties": { "node_id": "J123", "demand_lps": 0.3149 }, "geometry": { "type": "Polygon", "coordinates": [ [ [ 72.914653, 19.129123 ], [ 72.914663, 19.129502 ], [ 72.914912, 19.129958 ], [ 72.916353, 19.129989 ], [ 72.916665, 19.129708 ], [ 72.916032, 19.129078 ], [ 72.915795, 19.128987 ], [ 72.915368, 19.12895 ], [ 72.914833, 19.12897 ], [ 72.914653, 19.129123 ] ] ] } },
{ "type": "Feature", "properties": { "node_id": "J124", "demand_lps": 0.0202 }, "geometry": { "type": "Polygon", "coordinates": [ [ [ 72.915355, 19.126349 ], [ 72.915158, 19.126407 ], [ 72.915052, 19.126653 ], [ 72.915274, 19.126771 ], [ 72.915483, 19.126463 ], [ 72.915355, 19.126349 ] ] ] } },
{ "type": "Feature", "properties": { "node_id": "J125", "demand_lps": 0.0578 }, "geometry": { "type": "Polygon", "coordinates": [ [ [ 72.91508, 19.12523 ], [ 72.915109, 19.125327 ], [ 72.915283, 19.125488 ], [ 72.915353, 19.125525 ], [ 72.91539, 19.125512 ], [ 72.915781, 19.125045 ], [ 72.915005, 19.124817 ], [ 72.91508, 19.12523 ] ] ] } },
{ "type": "Feature", "properties": { "node_id": "J126", "demand_lps": 0.051 }, "geometry": { "type": "Polygon", "coordinates": [ [ [ 72.915533, 19.128119 ], [ 72.915518, 19.12811 ], [ 72.915295, 19.128357 ], [ 72.915368, 19.12895 ], [ 72.915795, 19.128987 ], [ 72.915533, 19.128119 ] ] ] } },
{ "type": "Feature", "properties": { "node_id": "J127", "demand_lps": 0.1059 }, "geometry": { "type": "Polygon", "coordinates": [ [ [ 72.91515, 19.137415 ], [ 72.915173, 19.137439 ], [ 72.915531, 19.137796 ], [ 72.915763, 19.137664 ], [ 72.915874, 19.137289 ], [ 72.91565, 19.136801 ], [ 72.915182, 19.136931 ], [ 72.914976, 19.13718 ], [ 72.91515, 19.137415 ] ] ] } },
{ "type": "Feature", "properties": { "node_id": "J128", "demand_lps": 0.035 }, "geometry": { "type": "Polygon", "coordinates": [ [ [ 72.915532, 19.127026 ], [ 72.915726, 19.126915 ], [ 72.915806, 19.126598 ], [ 72.915483, 19.126463 ], [ 72.915274, 19.126771 ], [ 72.915532, 19.127026 ] ] ] } },
{ "type": "Feature", "properties": { "node_id": "J129", "demand_lps": 0.289 }, "geometry": { "type": "Polygon", "coordinates": [ [ [ 72.914991, 19.133494 ], [ 72.914447, 19.134675 ], [ 72.91522, 19.135174 ], [ 72.915914, 19.133809 ], [ 72.91526, 19.133245 ], [ 72.914991, 19.133494 ] ] ] } },
{ "type": "Feature", "properties": { "node_id": "J130", "demand_lps": 0.0699 }, "geometry": { "type": "Polygon", "coordinates": [ [ [ 72.915263, 19.136407 ], [ 72.915675, 19.136677 ], [ 72.915753, 19.136589 ], [ 72.915792, 19.136362 ], [ 72.915298, 19.135586 ], [ 72.915145, 19.13599 ], [ 72.915263, 19.136407 ] ] ] } },
{ "type": "Feature", "properties": { "node_id": "J131", "demand_lps": 0.0409 }, "geometry": { "type": "Polygon", "coordinates": [ [ [ 72.915483, 19.126463 ], [ 72.915806, 19.126598 ], [ 72.915971, 19.126435 ], [ 72.915982, 19.126388 ], [ 72.915977, 19.126256 ], [ 72.915608, 19.126099 ], [ 72.915462, 19.126074 ], [ 72.915355, 19.126349 ], [ 72.915483, 19.126463 ] ] ] } },
{ "type": "Feature", "properties": { "node_id": "J132", "demand_lps": 0.0372 }, "geometry": { "type": "Polygon", "coordinates": [ [ [ 72.915254, 19.127928 ], [ 72.91545, 19.128048 ], [ 72.915808, 19.127647 ], [ 72.915771, 19.127596 ], [ 72.915646, 19.127506 ], [ 72.915487, 19.127436 ], [ 72.91534, 19.127575 ], [ 72.915254, 19.127928 ] ] ] } },
{ "type": "Feature", "properties": { "node_id": "J133", "demand_lps": 0.0382 }, "geometry": { "type": "Polygon", "coordinates": [ [ [ 72.915298, 19.125827 ], [ 72.915462, 19.126074 ], [ 72.915608, 19.126099 ], [ 72.915849, 19.1257 ], [ 72.91539, 19.125512 ], [ 72.915353, 19.125525 ], [ 72.915298, 19.125827 ] ] ] } },
{ "type": "Feature", "properties": { "node_id": "J134", "demand_lps": 0.0136 }, "geometry": { "type": "Polygon", "coordinates": [ [ [ 72.915533, 19.128119 ], [ 72.915572, 19.128108 ], [ 72.915907, 19.127733 ], [ 72.915808, 19.127647 ], [ 72.91545, 19.128048 ], [ 72.915518, 19.12811 ], [ 72.915533, 19.128119 ] ] ] } },
{ "type": "Feature", "properties": { "node_id": "J135", "demand_lps": 0.1294 }, "geometry": { "type": "Polygon", "coordinates": [ [ [ 72.915914, 19.133809 ], [ 72.91522, 19.135174 ], [ 72.915376, 19.135313 ], [ 72.916077, 19.135241 ], [ 72.91592, 19.133812 ], [ 72.915914, 19.133809 ] ] ] } },
{ "type": "Feature", "properties": { "node_id": "J136", "demand_lps": 0.0383 }, "geometry": { "type": "Polygon", "coordinates": [ [ [ 72.915977, 19.126256 ], [ 72.916186, 19.125926 ], [ 72.916166, 19.125763 ], [ 72.915849, 19.1257 ], [ 72.915608, 19.126099 ], [ 72.915977, 19.126256 ] ] ] } },
{ "type": "Feature", "properties": { "node_id": "J137", "demand_lps": 0.0105 }, "geometry": { "type": "Polygon", "coordinates": [ [ [ 72.915572, 19.128108 ], [ 72.915747, 19.128107 ], [ 72.916001, 19.127782 ], [ 72.915977, 19.127764 ], [ 72.915907, 19.127733 ], [ 72.915572, 19.128108 ] ] ] } },
{ "type": "Feature", "properties": { "node_id": "J138", "demand_lps": 0.0723 }, "geometry": { "type": "Polygon", "coordinates": [ [ [ 72.915795, 19.128987 ], [ 72.916032, 19.129078 ], [ 72.916103, 19.128679 ], [ 72.916099, 19.128205 ], [ 72.915747, 19.128107 ], [ 72.915572, 19.128108 ], [ 72.915533, 19.128119 ], [ 72.915795, 19.128987 ] ] ] } },
{ "type": "Feature", "properties": { "node_id": "J139", "demand_lps": 0.0447 }, "geometry": { "type": "Polygon", "coordinates": [ [ [ 72.915467, 19.12714 ], [ 72.915487, 19.127436 ], [ 72.915646, 19.127506 ], [ 72.916103, 19.127181 ], [ 72.916036, 19.127091 ], [ 72.915925, 19.127013 ], [ 72.915726, 19.126915 ], [ 72.915532, 19.127026 ], [ 72.915467, 19.12714 ] ] ] } },
{ "type": "Feature", "properties": { "node_id": "J140", "demand_lps": 0.0888 }, "geometry": { "type": "Polygon", "coordinates": [ [ [ 72.915849, 19.1257 ], [ 72.916166, 19.125763 ], [ 72.916481, 19.125249 ], [ 72.915781, 19.125045 ], [ 72.91539, 19.125512 ], [ 72.915849, 19.1257 ] ] ] } },
{ "type": "Feature", "properties": { "node_id": "J141", "demand_lps": 0.0226 }, "geometry": { "type": "Polygon", "coordinates": [ [ [ 72.916001, 19.127782 ], [ 72.915747, 19.128107 ], [ 72.916099, 19.128205 ], [ 72.916251, 19.127904 ], [ 72.916001, 19.127782 ] ] ] } },
{ "type": "Feature", "properties": { "node_id": "J142", "demand_lps": 0.1142 }, "geometry": { "type": "Polygon", "coordinates": [ [ [ 72.915298, 19.135586 ], [ 72.915792, 19.136362 ], [ 72.915869, 19.136274 ], [ 72.916213, 19.135292 ], [ 72.916077, 19.135241 ], [ 72.915376, 19.135313 ], [ 72.915298, 19.135543 ], [ 72.915298, 19.135586 ] ] ] } },
{ "type": "Feature", "properties": { "node_id": "J143", "demand_lps": 0.0156 }, "geometry": { "type": "Polygon", "coordinates": [ [ [ 72.915771, 19.127596 ], [ 72.916176, 19.127307 ], [ 72.91621, 19.12727 ], [ 72.916103, 19.127181 ], [ 72.915646, 19.127506 ], [ 72.915771, 19.127596 ] ] ] } },
{ "type": "Feature", "properties": { "node_id": "J144", "demand_lps": 0.0131 }, "geometry": { "type": "Polygon", "coordinates": [ [ [ 72.915808, 19.127647 ], [ 72.915907, 19.127733 ], [ 72.915977, 19.127764 ], [ 72.916176, 19.127307 ], [ 72.915771, 19.127596 ], [ 72.915808, 19.127647 ] ] ] } },
{ "type": "Feature", "properties": { "node_id": "J145", "demand_lps": 0.0803 }, "geometry": { "type": "Polygon", "coordinates": [ [ [ 72.915224, 19.139144 ], [ 72.915243, 19.13926 ], [ 72.915284, 19.139451 ], [ 72.915919, 19.138853 ], [ 72.915858, 19.138587 ], [ 72.915703, 19.13855 ], [ 72.915642, 19.138542 ], [ 72.915584, 19.138535 ], [ 72.915315, 19.138521 ], [ 72.915265, 19.13865 ], [ 72.91521, 19.138904 ], [ 72.915224, 19.139144 ] ] ] } },
{ "type": "Feature", "properties": { "node_id": "J146", "demand_lps": 0.1041 }, "geometry": { "type": "Polygon", "coordinates": [ [ [ 72.915315, 19.138521 ], [ 72.915584, 19.138535 ], [ 72.916343, 19.138025 ], [ 72.915763, 19.137664 ], [ 72.915531, 19.137796 ], [ 72.915269, 19.138093 ], [ 72.915315, 19.138521 ] ] ] } },
{ "type": "Feature", "properties": { "node_id": "J147", "demand_lps": 0.0031 }, "geometry": { "type": "Polygon", "coordinates": [ [ [ 72.915919, 19.138853 ], [ 72.915945, 19.138849 ], [ 72.915956, 19.1386 ], [ 72.915858, 19.138587 ], [ 72.915919, 19.138853 ] ] ] } },
{ "type": "Feature", "properties": { "node_id": "J148", "demand_lps": 0.0065 }, "geometry": { "type": "Polygon", "coordinates": [ [ [ 72.915642, 19.138542 ], [ 72.91638, 19.138045 ], [ 72.916343, 19.138025 ], [ 72.915584, 19.138535 ], [ 72.915642, 19.138542 ] ] ] } },
{ "type": "Feature", "properties": { "node_id": "J149", "demand_lps": 0.379 }, "geometry": { "type": "Polygon", "coordinates": [ [ [ 72.917081, 19.138969 ], [ 72.915945, 19.138849 ], [ 72.915919, 19.138853 ], [ 72.915284, 19.139451 ], [ 72.915299, 19.139543 ], [ 72.915586, 19.140193 ], [ 72.915632, 19.140205 ], [ 72.91577, 19.140229 ], [ 72.915909, 19.140239 ], [ 72.916049, 19.140236 ], [ 72.916188, 19.14022 ], [ 72.916325, 19.140191 ], [ 72.916458, 19.14015 ], [ 72.916586, 19.140096 ], [ 72.916708, 19.140031 ], [ 72.916822, 19.139955 ], [ 72.916929, 19.139869 ], [ 72.917025, 19.139773 ], [ 72.917112, 19.139668 ], [ 72.917132, 19.139637 ], [ 72.917091, 19.138985 ], [ 72.917081, 19.138969 ] ] ] } },
{ "type": "Feature", "properties": { "node_id": "J150", "demand_lps": 0.007 }, "geometry": { "type": "Polygon", "coordinates": [ [ [ 72.915703, 19.13855 ], [ 72.916422, 19.138067 ], [ 72.91638, 19.138045 ], [ 72.915642, 19.138542 ], [ 72.915703, 19.13855 ] ] ] } },
{ "type": "Feature", "properties": { "node_id": "J151", "demand_lps": 0.0524 }, "geometry": { "type": "Polygon", "coordinates": [ [ [ 72.915945, 19.138849 ], [ 72.917081, 19.138969 ], [ 72.916919, 19.138689 ], [ 72.915956, 19.1386 ], [ 72.915945, 19.138849 ] ] ] } },
{ "type": "Feature", "properties": { "node_id": "J152", "demand_lps": 0.0361 }, "geometry": { "type": "Polygon", "coordinates": [ [ [ 72.915925, 19.127013 ], [ 72.916319, 19.126685 ], [ 72.915971, 19.126435 ], [ 72.915806, 19.126598 ], [ 72.915726, 19.126915 ], [ 72.915925, 19.127013 ] ] ] } },
{ "type": "Feature", "properties": { "node_id": "J153", "demand_lps": 0.0508 }, "geometry": { "type": "Polygon", "coordinates": [ [ [ 72.916251, 19.127904 ], [ 72.916411, 19.127849 ], [ 72.916645, 19.127643 ], [ 72.916576, 19.127441 ], [ 72.916252, 19.127281 ], [ 72.91621, 19.12727 ], [ 72.916176, 19.127307 ], [ 72.915977, 19.127764 ], [ 72.916001, 19.127782 ], [ 72.916251, 19.127904 ] ] ] } },
{ "type": "Feature", "properties": { "node_id": "J154", "demand_lps": 0.0834 }, "geometry": { "type": "Polygon", "coordinates": [ [ [ 72.915858, 19.138587 ], [ 72.915956, 19.1386 ], [ 72.916919, 19.138689 ], [ 72.916786, 19.138231 ], [ 72.916422, 19.138067 ], [ 72.915703, 19.13855 ], [ 72.915858, 19.138587 ] ] ] } },
{ "type": "Feature", "properties": { "node_id": "J155", "demand_lps": 0.0131 }, "geometry": { "type": "Polygon", "coordinates": [ [ [ 72.916036, 19.127091 ], [ 72.916427, 19.126766 ], [ 72.916358, 19.126702 ], [ 72.916319, 19.126685 ], [ 72.915925, 19.127013 ], [ 72.916036, 19.127091 ] ] ] } },
{ "type": "Feature", "properties": { "node_id": "J156", "demand_lps": 0.0359 }, "geometry": { "type": "Polygon", "coordinates": [ [ [ 72.915869, 19.136274 ], [ 72.916275, 19.136147 ], [ 72.91623, 19.135294 ], [ 72.916213, 19.135292 ], [ 72.915869, 19.136274 ] ] ] } },
{ "type": "Feature", "properties": { "node_id": "J157", "demand_lps": 0.0157 }, "geometry": { "type": "Polygon", "coordinates": [ [ [ 72.916103, 19.127181 ], [ 72.91621, 19.12727 ], [ 72.916252, 19.127281 ], [ 72.916441, 19.126772 ], [ 72.916427, 19.126766 ], [ 72.916036, 19.127091 ], [ 72.916103, 19.127181 ] ] ] } },
{ "type": "Feature", "properties": { "node_id": "J158", "demand_lps": 0.0355 }, "geometry": { "type": "Polygon", "coordinates": [ [ [ 72.915753, 19.136589 ], [ 72.916143, 19.136569 ], [ 72.916292, 19.136453 ], [ 72.916374, 19.136211 ], [ 72.916275, 19.136147 ], [ 72.915869, 19.136274 ], [ 72.915792, 19.136362 ], [ 72.915753, 19.136589 ] ] ] } },
{ "type": "Feature", "properties": { "node_id": "J159", "demand_lps": 0.0336 }, "geometry": { "type": "Polygon", "coordinates": [ [ [ 72.915982, 19.126388 ], [ 72.916342, 19.126379 ], [ 72.916588, 19.126118 ], [ 72.916186, 19.125926 ], [ 72.915977, 19.126256 ], [ 72.915982, 19.126388 ] ] ] } },
{ "type": "Feature", "properties": { "node_id": "J160", "demand_lps": 0.0177 }, "geometry": { "type": "Polygon", "coordinates": [ [ [ 72.915971, 19.126435 ], [ 72.916319, 19.126685 ], [ 72.916358, 19.126702 ], [ 72.916466, 19.126456 ], [ 72.916464, 19.126433 ], [ 72.916342, 19.126379 ], [ 72.915982, 19.126388 ], [ 72.915971, 19.126435 ] ] ] } },
{ "type": "Feature", "properties": { "node_id": "J161", "demand_lps": 0.0653 }, "geometry": { "type": "Polygon", "coordinates": [ [ [ 72.915675, 19.136677 ], [ 72.91565, 19.136801 ], [ 72.915874, 19.137289 ], [ 72.916048, 19.137254 ], [ 72.916309, 19.13687 ], [ 72.916312, 19.13667 ], [ 72.916143, 19.136569 ], [ 72.915753, 19.136589 ], [ 72.915675, 19.136677 ] ] ] } },
{ "type": "Feature", "properties": { "node_id": "J162", "demand_lps": 0.0402 }, "geometry": { "type": "Polygon", "coordinates": [ [ [ 72.916103, 19.128679 ], [ 72.916509, 19.128263 ], [ 72.916515, 19.128115 ], [ 72.916411, 19.127849 ], [ 72.916251, 19.127904 ], [ 72.916099, 19.128205 ], [ 72.916103, 19.128679 ] ] ] } },
{ "type": "Feature", "properties": { "node_id": "J163", "demand_lps": 0.0417 }, "geometry": { "type": "Polygon", "coordinates": [ [ [ 72.916576, 19.127441 ], [ 72.916783, 19.127006 ], [ 72.916661, 19.126815 ], [ 72.916441, 19.126772 ], [ 72.916252, 19.127281 ], [ 72.916576, 19.127441 ] ] ] } },
{ "type": "Feature", "properties": { "node_id": "J164", "demand_lps": 0.0088 }, "geometry": { "type": "Polygon", "coordinates": [ [ [ 72.916464, 19.126433 ], [ 72.916705, 19.126177 ], [ 72.916661, 19.126141 ], [ 72.916588, 19.126118 ], [ 72.916342, 19.126379 ], [ 72.916464, 19.126433 ] ] ] } },
{ "type": "Feature", "properties": { "node_id": "J165", "demand_lps": 0.1872 }, "geometry": { "type": "Polygon", "coordinates": [ [ [ 72.916213, 19.135292 ], [ 72.91623, 19.135294 ], [ 72.916287, 19.135294 ], [ 72.917008, 19.134331 ], [ 72.916549, 19.133918 ], [ 72.91592, 19.133812 ], [ 72.916077, 19.135241 ], [ 72.916213, 19.135292 ] ] ] } },
{ "type": "Feature", "properties": { "node_id": "J166", "demand_lps": 0.0112 }, "geometry": { "type": "Polygon", "coordinates": [ [ [ 72.916312, 19.13667 ], [ 72.916309, 19.13687 ], [ 72.916824, 19.136876 ], [ 72.916479, 19.136712 ], [ 72.916312, 19.13667 ] ] ] } },
{ "type": "Feature", "properties": { "node_id": "J167", "demand_lps": 0.0471 }, "geometry": { "type": "Polygon", "coordinates": [ [ [ 72.916861, 19.13689 ], [ 72.916824, 19.136876 ], [ 72.916309, 19.13687 ], [ 72.916048, 19.137254 ], [ 72.916844, 19.137196 ], [ 72.916899, 19.137101 ], [ 72.916893, 19.136975 ], [ 72.916861, 19.13689 ] ] ] } },
{ "type": "Feature", "properties": { "node_id": "J168", "demand_lps": 0.0617 }, "geometry": { "type": "Polygon", "coordinates": [ [ [ 72.916374, 19.136211 ], [ 72.916629, 19.136175 ], [ 72.916691, 19.136082 ], [ 72.916594, 19.135451 ], [ 72.916287, 19.135294 ], [ 72.91623, 19.135294 ], [ 72.916275, 19.136147 ], [ 72.916374, 19.136211 ] ] ] } },
{ "type": "Feature", "properties": { "node_id": "J169", "demand_lps": 0.0141 }, "geometry": { "type": "Polygon", "coordinates": [ [ [ 72.916441, 19.126772 ], [ 72.916661, 19.126815 ], [ 72.91669, 19.126746 ], [ 72.916583, 19.126509 ], [ 72.916466, 19.126456 ], [ 72.916358, 19.126702 ], [ 72.916427, 19.126766 ], [ 72.916441, 19.126772 ] ] ] } },
{ "type": "Feature", "properties": { "node_id": "J170", "demand_lps": 0.1601 }, "geometry": { "type": "Polygon", "coordinates": [ [ [ 72.916422, 19.138067 ], [ 72.916786, 19.138231 ], [ 72.916946, 19.137853 ], [ 72.916844, 19.137196 ], [ 72.916048, 19.137254 ], [ 72.915874, 19.137289 ], [ 72.915763, 19.137664 ], [ 72.916343, 19.138025 ], [ 72.91638, 19.138045 ], [ 72.916422, 19.138067 ] ] ] } },
{ "type": "Feature", "properties": { "node_id": "J171", "demand_lps": 0.1671 }, "geometry": { "type": "Polygon", "coordinates": [ [ [ 72.916032, 19.129078 ], [ 72.916665, 19.129708 ], [ 72.916757, 19.1297 ], [ 72.916887, 19.129507 ], [ 72.917009, 19.129029 ], [ 72.916736, 19.128486 ], [ 72.916669, 19.12838 ], [ 72.916509, 19.128263 ], [ 72.916103, 19.128679 ], [ 72.916032, 19.129078 ] ] ] } },
{ "type": "Feature", "properties": { "node_id": "J172", "demand_lps": 0.0051 }, "geometry": { "type": "Polygon", "coordinates": [ [ [ 72.916466, 19.126456 ], [ 72.916583, 19.126509 ], [ 72.916708, 19.126179 ], [ 72.916705, 19.126177 ], [ 72.916464, 19.126433 ], [ 72.916466, 19.126456 ] ] ] } },
{ "type": "Feature", "properties": { "node_id": "J173", "demand_lps": 0.0148 }, "geometry": { "type": "Polygon", "coordinates": [ [ [ 72.916629, 19.136175 ], [ 72.916374, 19.136211 ], [ 72.916292, 19.136453 ], [ 72.916482, 19.136455 ], [ 72.916655, 19.136398 ], [ 72.916629, 19.136175 ] ] ] } },
{ "type": "Feature", "properties": { "node_id": "J174", "demand_lps": 0.0115 }, "geometry": { "type": "Polygon", "coordinates": [ [ [ 72.916143, 19.136569 ], [ 72.916312, 19.13667 ], [ 72.916479, 19.136712 ], [ 72.916482, 19.136455 ], [ 72.916292, 19.136453 ], [ 72.916143, 19.136569 ] ] ] } },
{ "type": "Feature", "properties": { "node_id": "J175", "demand_lps": 0.0676 }, "geometry": { "type": "Polygon", "coordinates": [ [ [ 72.916588, 19.126118 ], [ 72.916661, 19.126141 ], [ 72.916797, 19.125538 ], [ 72.916563, 19.125273 ], [ 72.916481, 19.125249 ], [ 72.916166, 19.125763 ], [ 72.916186, 19.125926 ], [ 72.916588, 19.126118 ] ] ] } },
{ "type": "Feature", "properties": { "node_id": "J176", "demand_lps": 0.1738 }, "geometry": { "type": "Polygon", "coordinates": [ [ [ 72.915302, 19.133063 ], [ 72.916416, 19.132965 ], [ 72.9167, 19.132761 ], [ 72.916672, 19.132442 ], [ 72.916511, 19.132298 ], [ 72.916037, 19.131903 ], [ 72.915302, 19.133063 ] ] ] } },
{ "type": "Feature", "properties": { "node_id": "J177", "demand_lps": 0.0235 }, "geometry": { "type": "Polygon", "coordinates": [ [ [ 72.91669, 19.126746 ], [ 72.91692, 19.126437 ], [ 72.916949, 19.126365 ], [ 72.916969, 19.126261 ], [ 72.916708, 19.126179 ], [ 72.916583, 19.126509 ], [ 72.91669, 19.126746 ] ] ] } },
{ "type": "Feature", "properties": { "node_id": "J178", "demand_lps": 0.0232 }, "geometry": { "type": "Polygon", "coordinates": [ [ [ 72.916482, 19.136455 ], [ 72.916479, 19.136712 ], [ 72.916824, 19.136876 ], [ 72.916861, 19.13689 ], [ 72.916867, 19.136806 ], [ 72.916819, 19.136612 ], [ 72.916655, 19.136398 ], [ 72.916482, 19.136455 ] ] ] } },
{ "type": "Feature", "properties": { "node_id": "J179", "demand_lps": 0.0052 }, "geometry": { "type": "Polygon", "coordinates": [ [ [ 72.916509, 19.128263 ], [ 72.916669, 19.12838 ], [ 72.916676, 19.128207 ], [ 72.916515, 19.128115 ], [ 72.916509, 19.128263 ] ] ] } },
{ "type": "Feature", "properties": { "node_id": "J180", "demand_lps": 0.2145 }, "geometry": { "type": "Polygon", "coordinates": [ [ [ 72.915275, 19.133087 ], [ 72.91526, 19.133245 ], [ 72.915914, 19.133809 ], [ 72.91592, 19.133812 ], [ 72.916549, 19.133918 ], [ 72.91707, 19.133295 ], [ 72.916416, 19.132965 ], [ 72.915302, 19.133063 ], [ 72.915275, 19.133087 ] ] ] } },
{ "type": "Feature", "properties": { "node_id": "J181", "demand_lps": 0.0563 }, "geometry": { "type": "Polygon", "coordinates": [ [ [ 72.916515, 19.128115 ], [ 72.916676, 19.128207 ], [ 72.916749, 19.128194 ], [ 72.917306, 19.127909 ], [ 72.917249, 19.12784 ], [ 72.916645, 19.127643 ], [ 72.916411, 19.127849 ], [ 72.916515, 19.128115 ] ] ] } },
{ "type": "Feature", "properties": { "node_id": "J182", "demand_lps": 0.0033 }, "geometry": { "type": "Polygon", "coordinates": [ [ [ 72.916736, 19.128486 ], [ 72.916749, 19.128194 ], [ 72.916676, 19.128207 ], [ 72.916669, 19.12838 ], [ 72.916736, 19.128486 ] ] ] } },
{ "type": "Feature", "properties": { "node_id": "J183", "demand_lps": 0.0769 }, "geometry": { "type": "Polygon", "coordinates": [ [ [ 72.917009, 19.129029 ], [ 72.917314, 19.128334 ], [ 72.917364, 19.128091 ], [ 72.917374, 19.127975 ], [ 72.917306, 19.127909 ], [ 72.916749, 19.128194 ], [ 72.916736, 19.128486 ], [ 72.917009, 19.129029 ] ] ] } },
{ "type": "Feature", "properties": { "node_id": "J184", "demand_lps": 0.0461 }, "geometry": { "type": "Polygon", "coordinates": [ [ [ 72.916661, 19.126141 ], [ 72.916705, 19.126177 ], [ 72.916708, 19.126179 ], [ 72.916969, 19.126261 ], [ 72.917301, 19.126106 ], [ 72.916797, 19.125538 ], [ 72.916661, 19.126141 ] ] ] } },
{ "type": "Feature", "properties": { "node_id": "J185", "demand_lps": 0.4453 }, "geometry": { "type": "Polygon", "coordinates": [ [ [ 72.916119, 19.131701 ], [ 72.917017, 19.131657 ], [ 72.917682, 19.130358 ], [ 72.916757, 19.1297 ], [ 72.916665, 19.129708 ], [ 72.916353, 19.129989 ], [ 72.916074, 19.130597 ], [ 72.91592, 19.131228 ], [ 72.916119, 19.131701 ] ] ] } },
{ "type": "Feature", "properties": { "node_id": "J186", "demand_lps": 0.0524 }, "geometry": { "type": "Polygon", "coordinates": [ [ [ 72.91707, 19.133295 ], [ 72.91715, 19.133259 ], [ 72.917237, 19.132915 ], [ 72.917219, 19.1328 ], [ 72.9167, 19.132761 ], [ 72.916416, 19.132965 ], [ 72.91707, 19.133295 ] ] ] } },
{ "type": "Feature", "properties": { "node_id": "J187", "demand_lps": 0.0276 }, "geometry": { "type": "Polygon", "coordinates": [ [ [ 72.9167, 19.132761 ], [ 72.917219, 19.1328 ], [ 72.917234, 19.132746 ], [ 72.917039, 19.132514 ], [ 72.916986, 19.132467 ], [ 72.916672, 19.132442 ], [ 72.9167, 19.132761 ] ] ] } },
{ "type": "Feature", "properties": { "node_id": "J188", "demand_lps": 0.0975 }, "geometry": { "type": "Polygon", "coordinates": [ [ [ 72.916037, 19.131903 ], [ 72.916511, 19.132298 ], [ 72.916985, 19.1323 ], [ 72.917044, 19.131681 ], [ 72.917017, 19.131657 ], [ 72.916119, 19.131701 ], [ 72.916037, 19.131902 ], [ 72.916037, 19.131903 ] ] ] } },
{ "type": "Feature", "properties": { "node_id": "J189", "demand_lps": 0.0117 }, "geometry": { "type": "Polygon", "coordinates": [ [ [ 72.916672, 19.132442 ], [ 72.916986, 19.132467 ], [ 72.916985, 19.1323 ], [ 72.916511, 19.132298 ], [ 72.916672, 19.132442 ] ] ] } },
{ "type": "Feature", "properties": { "node_id": "J190", "demand_lps": 0.021 }, "geometry": { "type": "Polygon", "coordinates": [ [ [ 72.916655, 19.136398 ], [ 72.916819, 19.136612 ], [ 72.916909, 19.136456 ], [ 72.916923, 19.13615 ], [ 72.916691, 19.136082 ], [ 72.916629, 19.136175 ], [ 72.916655, 19.136398 ] ] ] } },
{ "type": "Feature", "properties": { "node_id": "J191", "demand_lps": 0.0241 }, "geometry": { "type": "Polygon", "coordinates": [ [ [ 72.916661, 19.126815 ], [ 72.916783, 19.127006 ], [ 72.916914, 19.126998 ], [ 72.917021, 19.126849 ], [ 72.916986, 19.126572 ], [ 72.91692, 19.126437 ], [ 72.91669, 19.126746 ], [ 72.916661, 19.126815 ] ] ] } },
{ "type": "Feature", "properties": { "node_id": "J192", "demand_lps": 0.0886 }, "geometry": { "type": "Polygon", "coordinates": [ [ [ 72.916645, 19.127643 ], [ 72.917249, 19.12784 ], [ 72.91734, 19.127381 ], [ 72.917282, 19.127128 ], [ 72.916914, 19.126998 ], [ 72.916783, 19.127006 ], [ 72.916576, 19.127441 ], [ 72.916645, 19.127643 ] ] ] } },
{ "type": "Feature", "properties": { "node_id": "J193", "demand_lps": 0.0032 }, "geometry": { "type": "Polygon", "coordinates": [ [ [ 72.917115, 19.126761 ], [ 72.917109, 19.126724 ], [ 72.916986, 19.126572 ], [ 72.917021, 19.126849 ], [ 72.917115, 19.126761 ] ] ] } },
{ "type": "Feature", "properties": { "node_id": "J194", "demand_lps": 0.0887 }, "geometry": { "type": "Polygon", "coordinates": [ [ [ 72.916691, 19.136082 ], [ 72.916923, 19.13615 ], [ 72.917033, 19.136144 ], [ 72.917178, 19.136105 ], [ 72.917294, 19.136018 ], [ 72.917296, 19.136016 ], [ 72.917434, 19.135488 ], [ 72.916594, 19.135451 ], [ 72.916691, 19.136082 ] ] ] } },
{ "type": "Feature", "properties": { "node_id": "J195", "demand_lps": 0.0059 }, "geometry": { "type": "Polygon", "coordinates": [ [ [ 72.91692, 19.126437 ], [ 72.916986, 19.126572 ], [ 72.917109, 19.126724 ], [ 72.917154, 19.126621 ], [ 72.916949, 19.126365 ], [ 72.91692, 19.126437 ] ] ] } },
{ "type": "Feature", "properties": { "node_id": "J196", "demand_lps": 0.0058 }, "geometry": { "type": "Polygon", "coordinates": [ [ [ 72.916923, 19.13615 ], [ 72.916909, 19.136456 ], [ 72.917022, 19.136377 ], [ 72.917033, 19.136144 ], [ 72.916923, 19.13615 ] ] ] } },
{ "type": "Feature", "properties": { "node_id": "J197", "demand_lps": 0.3295 }, "geometry": { "type": "Polygon", "coordinates": [ [ [ 72.916287, 19.135294 ], [ 72.916594, 19.135451 ], [ 72.917434, 19.135488 ], [ 72.917733, 19.135347 ], [ 72.918675, 19.134632 ], [ 72.918742, 19.134556 ], [ 72.917008, 19.134331 ], [ 72.916287, 19.135294 ] ] ] } },
{ "type": "Feature", "properties": { "node_id": "J198", "demand_lps": 0.0074 }, "geometry": { "type": "Polygon", "coordinates": [ [ [ 72.917115, 19.126761 ], [ 72.917558, 19.126738 ], [ 72.917581, 19.126712 ], [ 72.917154, 19.126621 ], [ 72.917109, 19.126724 ], [ 72.917115, 19.126761 ] ] ] } },
{ "type": "Feature", "properties": { "node_id": "J199", "demand_lps": 0.0287 }, "geometry": { "type": "Polygon", "coordinates": [ [ [ 72.917282, 19.127128 ], [ 72.917456, 19.126924 ], [ 72.917558, 19.126738 ], [ 72.917115, 19.126761 ], [ 72.917021, 19.126849 ], [ 72.916914, 19.126998 ], [ 72.917282, 19.127128 ] ] ] } },
{ "type": "Feature", "properties": { "node_id": "J200", "demand_lps": 0.0153 }, "geometry": { "type": "Polygon", "coordinates": [ [ [ 72.9171, 19.136572 ], [ 72.91718, 19.136431 ], [ 72.91716, 19.136383 ], [ 72.917022, 19.136377 ], [ 72.916909, 19.136456 ], [ 72.916819, 19.136612 ], [ 72.916867, 19.136806 ], [ 72.9171, 19.136572 ] ] ] } },
{ "type": "Feature", "properties": { "node_id": "J201", "demand_lps": 0.0207 }, "geometry": { "type": "Polygon", "coordinates": [ [ [ 72.917039, 19.132514 ], [ 72.91714, 19.132332 ], [ 72.917171, 19.131754 ], [ 72.917044, 19.131681 ], [ 72.916985, 19.1323 ], [ 72.916986, 19.132467 ], [ 72.917039, 19.132514 ] ] ] } },
{ "type": "Feature", "properties": { "node_id": "J202", "demand_lps": 0.0071 }, "geometry": { "type": "Polygon", "coordinates": [ [ [ 72.917033, 19.136144 ], [ 72.917022, 19.136377 ], [ 72.91716, 19.136383 ], [ 72.917167, 19.136334 ], [ 72.917178, 19.136105 ], [ 72.917033, 19.136144 ] ] ] } },
{ "type": "Feature", "properties": { "node_id": "J203", "demand_lps": 0.0516 }, "geometry": { "type": "Polygon", "coordinates": [ [ [ 72.916949, 19.126365 ], [ 72.917154, 19.126621 ], [ 72.917581, 19.126712 ], [ 72.917726, 19.126586 ], [ 72.917301, 19.126106 ], [ 72.916969, 19.126261 ], [ 72.916949, 19.126365 ] ] ] } },
{ "type": "Feature", "properties": { "node_id": "J204", "demand_lps": 0.0286 }, "geometry": { "type": "Polygon", "coordinates": [ [ [ 72.91714, 19.132332 ], [ 72.917475, 19.132244 ], [ 72.917497, 19.132017 ], [ 72.91744, 19.131897 ], [ 72.917171, 19.131754 ], [ 72.91714, 19.132332 ] ] ] } },
{ "type": "Feature", "properties": { "node_id": "J205", "demand_lps": 0.0256 }, "geometry": { "type": "Polygon", "coordinates": [ [ [ 72.917039, 19.132514 ], [ 72.917234, 19.132746 ], [ 72.917421, 19.132573 ], [ 72.917466, 19.13241 ], [ 72.917475, 19.132244 ], [ 72.91714, 19.132332 ], [ 72.917039, 19.132514 ] ] ] } },
{ "type": "Feature", "properties": { "node_id": "J206", "demand_lps": 0.28 }, "geometry": { "type": "Polygon", "coordinates": [ [ [ 72.916549, 19.133918 ], [ 72.917008, 19.134331 ], [ 72.918742, 19.134556 ], [ 72.918804, 19.134524 ], [ 72.918637, 19.134224 ], [ 72.91715, 19.133259 ], [ 72.91707, 19.133295 ], [ 72.916549, 19.133918 ] ] ] } },
{ "type": "Feature", "properties": { "node_id": "J207", "demand_lps": 0.0063 }, "geometry": { "type": "Polygon", "coordinates": [ [ [ 72.91718, 19.136431 ], [ 72.9171, 19.136572 ], [ 72.917456, 19.136546 ], [ 72.917372, 19.136451 ], [ 72.91718, 19.136431 ] ] ] } },
{ "type": "Feature", "properties": { "node_id": "J208", "demand_lps": 0.0254 }, "geometry": { "type": "Polygon", "coordinates": [ [ [ 72.916893, 19.136975 ], [ 72.917539, 19.136616 ], [ 72.917529, 19.136603 ], [ 72.917456, 19.136546 ], [ 72.9171, 19.136572 ], [ 72.916867, 19.136806 ], [ 72.916861, 19.13689 ], [ 72.916893, 19.136975 ] ] ] } },
{ "type": "Feature", "properties": { "node_id": "J209", "demand_lps": 0.0034 }, "geometry": { "type": "Polygon", "coordinates": [ [ [ 72.91718, 19.136431 ], [ 72.917372, 19.136451 ], [ 72.917369, 19.136391 ], [ 72.91727, 19.136345 ], [ 72.917167, 19.136334 ], [ 72.91716, 19.136383 ], [ 72.91718, 19.136431 ] ] ] } },
{ "type": "Feature", "properties": { "node_id": "J210", "demand_lps": 0.0058 }, "geometry": { "type": "Polygon", "coordinates": [ [ [ 72.917178, 19.136105 ], [ 72.917167, 19.136334 ], [ 72.91727, 19.136345 ], [ 72.917294, 19.136018 ], [ 72.917178, 19.136105 ] ] ] } },
{ "type": "Feature", "properties": { "node_id": "J211", "demand_lps": 0.0055 }, "geometry": { "type": "Polygon", "coordinates": [ [ [ 72.917296, 19.136016 ], [ 72.917294, 19.136018 ], [ 72.91727, 19.136345 ], [ 72.917369, 19.136391 ], [ 72.91738, 19.136138 ], [ 72.917296, 19.136016 ] ] ] } },
{ "type": "Feature", "properties": { "node_id": "J212", "demand_lps": 0.0924 }, "geometry": { "type": "Polygon", "coordinates": [ [ [ 72.916844, 19.137196 ], [ 72.916946, 19.137853 ], [ 72.917502, 19.137689 ], [ 72.917481, 19.137609 ], [ 72.917839, 19.137228 ], [ 72.917763, 19.137174 ], [ 72.916899, 19.137101 ], [ 72.916844, 19.137196 ] ] ] } },
{ "type": "Feature", "properties": { "node_id": "J213", "demand_lps": 0.0568 }, "geometry": { "type": "Polygon", "coordinates": [ [ [ 72.916893, 19.136975 ], [ 72.916899, 19.137101 ], [ 72.917763, 19.137174 ], [ 72.917612, 19.136642 ], [ 72.917606, 19.13664 ], [ 72.917539, 19.136616 ], [ 72.916893, 19.136975 ] ] ] } },
{ "type": "Feature", "properties": { "node_id": "J214", "demand_lps": 0.0113 }, "geometry": { "type": "Polygon", "coordinates": [ [ [ 72.917372, 19.136451 ], [ 72.917456, 19.136546 ], [ 72.917529, 19.136603 ], [ 72.917545, 19.136236 ], [ 72.91738, 19.136138 ], [ 72.917369, 19.136391 ], [ 72.917372, 19.136451 ] ] ] } },
{ "type": "Feature", "properties": { "node_id": "J215", "demand_lps": 0.0222 }, "geometry": { "type": "Polygon", "coordinates": [ [ [ 72.91734, 19.127381 ], [ 72.917753, 19.127247 ], [ 72.917456, 19.126924 ], [ 72.917282, 19.127128 ], [ 72.91734, 19.127381 ] ] ] } },
{ "type": "Feature", "properties": { "node_id": "J216", "demand_lps": 0.1048 }, "geometry": { "type": "Polygon", "coordinates": [ [ [ 72.916946, 19.137853 ], [ 72.916786, 19.138231 ], [ 72.916919, 19.138689 ], [ 72.917081, 19.138969 ], [ 72.917091, 19.138985 ], [ 72.917059, 19.138491 ], [ 72.917658, 19.138299 ], [ 72.917502, 19.137689 ], [ 72.916946, 19.137853 ] ] ] } },
{ "type": "Feature", "properties": { "node_id": "J217", "demand_lps": 0.0451 }, "geometry": { "type": "Polygon", "coordinates": [ [ [ 72.917456, 19.126924 ], [ 72.917753, 19.127247 ], [ 72.91787, 19.127247 ], [ 72.918092, 19.126999 ], [ 72.917726, 19.126586 ], [ 72.917581, 19.126712 ], [ 72.917558, 19.126738 ], [ 72.917456, 19.126924 ] ] ] } },
{ "type": "Feature", "properties": { "node_id": "J218", "demand_lps": 0.063 }, "geometry": { "type": "Polygon", "coordinates": [ [ [ 72.917306, 19.127909 ], [ 72.917374, 19.127975 ], [ 72.91767, 19.127909 ], [ 72.917828, 19.127655 ], [ 72.917874, 19.127376 ], [ 72.91787, 19.127247 ], [ 72.917753, 19.127247 ], [ 72.91734, 19.127381 ], [ 72.917249, 19.12784 ], [ 72.917306, 19.127909 ] ] ] } },
{ "type": "Feature", "properties": { "node_id": "J219", "demand_lps": 0.155 }, "geometry": { "type": "Polygon", "coordinates": [ [ [ 72.91715, 19.133259 ], [ 72.918637, 19.134224 ], [ 72.918568, 19.133959 ], [ 72.91839, 19.133403 ], [ 72.917747, 19.132988 ], [ 72.917237, 19.132915 ], [ 72.91715, 19.133259 ] ] ] } },
{ "type": "Feature", "properties": { "node_id": "J220", "demand_lps": 0.2345 }, "geometry": { "type": "Polygon", "coordinates": [ [ [ 72.917044, 19.131681 ], [ 72.917171, 19.131754 ], [ 72.91744, 19.131897 ], [ 72.918344, 19.131457 ], [ 72.918361, 19.131242 ], [ 72.918183, 19.13076 ], [ 72.918052, 19.130537 ], [ 72.917946, 19.13041 ], [ 72.917682, 19.130358 ], [ 72.917017, 19.131657 ], [ 72.917044, 19.131681 ] ] ] } },
{ "type": "Feature", "properties": { "node_id": "J221", "demand_lps": 0.0617 }, "geometry": { "type": "Polygon", "coordinates": [ [ [ 72.91738, 19.136138 ], [ 72.917545, 19.136236 ], [ 72.917624, 19.136237 ], [ 72.917761, 19.136231 ], [ 72.917795, 19.136197 ], [ 72.917733, 19.135347 ], [ 72.917434, 19.135488 ], [ 72.917296, 19.136016 ], [ 72.91738, 19.136138 ] ] ] } },
{ "type": "Feature", "properties": { "node_id": "J222", "demand_lps": 0.006 }, "geometry": { "type": "Polygon", "coordinates": [ [ [ 72.917529, 19.136603 ], [ 72.917539, 19.136616 ], [ 72.917606, 19.13664 ], [ 72.917624, 19.136237 ], [ 72.917545, 19.136236 ], [ 72.917529, 19.136603 ] ] ] } },
{ "type": "Feature", "properties": { "node_id": "J223", "demand_lps": 0.0321 }, "geometry": { "type": "Polygon", "coordinates": [ [ [ 72.917237, 19.132915 ], [ 72.917747, 19.132988 ], [ 72.917751, 19.132661 ], [ 72.917421, 19.132573 ], [ 72.917234, 19.132746 ], [ 72.917219, 19.1328 ], [ 72.917237, 19.132915 ] ] ] } },
{ "type": "Feature", "properties": { "node_id": "J224", "demand_lps": 0.0098 }, "geometry": { "type": "Polygon", "coordinates": [ [ [ 72.917624, 19.136237 ], [ 72.917606, 19.13664 ], [ 72.917612, 19.136642 ], [ 72.917747, 19.136555 ], [ 72.917761, 19.136231 ], [ 72.917624, 19.136237 ] ] ] } },
{ "type": "Feature", "properties": { "node_id": "J225", "demand_lps": 0.1339 }, "geometry": { "type": "Polygon", "coordinates": [ [ [ 72.916887, 19.129507 ], [ 72.918117, 19.12891 ], [ 72.917948, 19.128626 ], [ 72.917314, 19.128334 ], [ 72.917009, 19.129029 ], [ 72.916887, 19.129507 ] ] ] } },
{ "type": "Feature", "properties": { "node_id": "J226", "demand_lps": 0.0189 }, "geometry": { "type": "Polygon", "coordinates": [ [ [ 72.917751, 19.132661 ], [ 72.9179, 19.132631 ], [ 72.917921, 19.132432 ], [ 72.917466, 19.13241 ], [ 72.917421, 19.132573 ], [ 72.917751, 19.132661 ] ] ] } },
{ "type": "Feature", "properties": { "node_id": "J227", "demand_lps": 0.0294 }, "geometry": { "type": "Polygon", "coordinates": [ [ [ 72.917466, 19.13241 ], [ 72.917921, 19.132432 ], [ 72.918024, 19.132243 ], [ 72.917497, 19.132017 ], [ 72.917475, 19.132244 ], [ 72.917466, 19.13241 ] ] ] } },
{ "type": "Feature", "properties": { "node_id": "J228", "demand_lps": 0.0267 }, "geometry": { "type": "Polygon", "coordinates": [ [ [ 72.917314, 19.128334 ], [ 72.917948, 19.128626 ], [ 72.91796, 19.128456 ], [ 72.917364, 19.128091 ], [ 72.917314, 19.128334 ] ] ] } },
{ "type": "Feature", "properties": { "node_id": "J229", "demand_lps": 0.0529 }, "geometry": { "type": "Polygon", "coordinates": [ [ [ 72.91839, 19.133403 ], [ 72.918364, 19.132947 ], [ 72.9179, 19.132631 ], [ 72.917751, 19.132661 ], [ 72.917747, 19.132988 ], [ 72.91839, 19.133403 ] ] ] } },
{ "type": "Feature", "properties": { "node_id": "J230", "demand_lps": 0.0408 }, "geometry": { "type": "Polygon", "coordinates": [ [ [ 72.917364, 19.128091 ], [ 72.91796, 19.128456 ], [ 72.918028, 19.12838 ], [ 72.917979, 19.128056 ], [ 72.917893, 19.127969 ], [ 72.91767, 19.127909 ], [ 72.917374, 19.127975 ], [ 72.917364, 19.128091 ] ] ] } },
{ "type": "Feature", "properties": { "node_id": "J231", "demand_lps": 0.0294 }, "geometry": { "type": "Polygon", "coordinates": [ [ [ 72.917747, 19.136555 ], [ 72.9183, 19.136535 ], [ 72.918265, 19.136322 ], [ 72.917795, 19.136197 ], [ 72.917761, 19.136231 ], [ 72.917747, 19.136555 ] ] ] } },
{ "type": "Feature", "properties": { "node_id": "J232", "demand_lps": 0.0969 }, "geometry": { "type": "Polygon", "coordinates": [ [ [ 72.917497, 19.132017 ], [ 72.918024, 19.132243 ], [ 72.91843, 19.132163 ], [ 72.918501, 19.13185 ], [ 72.918501, 19.131807 ], [ 72.918344, 19.131457 ], [ 72.91744, 19.131897 ], [ 72.917497, 19.132017 ] ] ] } },
{ "type": "Feature", "properties": { "node_id": "J233", "demand_lps": 0.1069 }, "geometry": { "type": "Polygon", "coordinates": [ [ [ 72.917763, 19.137174 ], [ 72.917839, 19.137228 ], [ 72.917891, 19.137172 ], [ 72.918791, 19.137204 ], [ 72.9183, 19.136535 ], [ 72.917747, 19.136555 ], [ 72.917612, 19.136642 ], [ 72.917763, 19.137174 ] ] ] } },
{ "type": "Feature", "properties": { "node_id": "J234", "demand_lps": 0.0111 }, "geometry": { "type": "Polygon", "coordinates": [ [ [ 72.917828, 19.127655 ], [ 72.918265, 19.127486 ], [ 72.917874, 19.127376 ], [ 72.917828, 19.127655 ] ] ] } },
{ "type": "Feature", "properties": { "node_id": "J235", "demand_lps": 0.0305 }, "geometry": { "type": "Polygon", "coordinates": [ [ [ 72.91787, 19.127247 ], [ 72.917874, 19.127376 ], [ 72.918265, 19.127486 ], [ 72.91848, 19.127437 ], [ 72.918092, 19.126999 ], [ 72.91787, 19.127247 ] ] ] } },
{ "type": "Feature", "properties": { "node_id": "J236", "demand_lps": 0.1641 }, "geometry": { "type": "Polygon", "coordinates": [ [ [ 72.917733, 19.135347 ], [ 72.917795, 19.136197 ], [ 72.918265, 19.136322 ], [ 72.918675, 19.134632 ], [ 72.917733, 19.135347 ] ] ] } },
{ "type": "Feature", "properties": { "node_id": "J237", "demand_lps": 0.0313 }, "geometry": { "type": "Polygon", "coordinates": [ [ [ 72.918117, 19.12891 ], [ 72.918317, 19.1289 ], [ 72.918349, 19.128856 ], [ 72.918398, 19.128621 ], [ 72.918132, 19.128413 ], [ 72.918028, 19.12838 ], [ 72.91796, 19.128456 ], [ 72.917948, 19.128626 ], [ 72.918117, 19.12891 ] ] ] } },
{ "type": "Feature", "properties": { "node_id": "J238", "demand_lps": 0.0634 }, "geometry": { "type": "Polygon", "coordinates": [ [ [ 72.9179, 19.132631 ], [ 72.918364, 19.132947 ], [ 72.918541, 19.132434 ], [ 72.91843, 19.132163 ], [ 72.918024, 19.132243 ], [ 72.917921, 19.132432 ], [ 72.9179, 19.132631 ] ] ] } },
{ "type": "Feature", "properties": { "node_id": "J239", "demand_lps": 0.0461 }, "geometry": { "type": "Polygon", "coordinates": [ [ [ 72.917893, 19.127969 ], [ 72.918358, 19.127774 ], [ 72.918433, 19.1277 ], [ 72.918562, 19.12753 ], [ 72.91848, 19.127437 ], [ 72.918265, 19.127486 ], [ 72.917828, 19.127655 ], [ 72.91767, 19.127909 ], [ 72.917893, 19.127969 ] ] ] } },
{ "type": "Feature", "properties": { "node_id": "J240", "demand_lps": 0.0093 }, "geometry": { "type": "Polygon", "coordinates": [ [ [ 72.918132, 19.128413 ], [ 72.918206, 19.12817 ], [ 72.917979, 19.128056 ], [ 72.918028, 19.12838 ], [ 72.918132, 19.128413 ] ] ] } },
{ "type": "Feature", "properties": { "node_id": "J241", "demand_lps": 0.3247 }, "geometry": { "type": "Polygon", "coordinates": [ [ [ 72.916757, 19.1297 ], [ 72.917682, 19.130358 ], [ 72.917946, 19.13041 ], [ 72.918314, 19.130105 ], [ 72.918516, 19.129802 ], [ 72.918624, 19.129422 ], [ 72.918317, 19.1289 ], [ 72.918117, 19.12891 ], [ 72.916887, 19.129507 ], [ 72.916757, 19.1297 ] ] ] } },
{ "type": "Feature", "properties": { "node_id": "J242", "demand_lps": 0.021 }, "geometry": { "type": "Polygon", "coordinates": [ [ [ 72.918548, 19.128326 ], [ 72.918436, 19.128239 ], [ 72.918206, 19.12817 ], [ 72.918132, 19.128413 ], [ 72.918398, 19.128621 ], [ 72.918548, 19.128326 ] ] ] } },
{ "type": "Feature", "properties": { "node_id": "J243", "demand_lps": 0.0258 }, "geometry": { "type": "Polygon", "coordinates": [ [ [ 72.917979, 19.128056 ], [ 72.918206, 19.12817 ], [ 72.918436, 19.128239 ], [ 72.918358, 19.127774 ], [ 72.917893, 19.127969 ], [ 72.917979, 19.128056 ] ] ] } },
{ "type": "Feature", "properties": { "node_id": "J244", "demand_lps": 0.0166 }, "geometry": { "type": "Polygon", "coordinates": [ [ [ 72.918358, 19.127774 ], [ 72.918436, 19.128239 ], [ 72.918548, 19.128326 ], [ 72.918653, 19.128286 ], [ 72.918433, 19.1277 ], [ 72.918358, 19.127774 ] ] ] } },
{ "type": "Feature", "properties": { "node_id": "J245", "demand_lps": 0.0463 }, "geometry": { "type": "Polygon", "coordinates": [ [ [ 72.918433, 19.1277 ], [ 72.918653, 19.128286 ], [ 72.919102, 19.128172 ], [ 72.918987, 19.12801 ], [ 72.918562, 19.12753 ], [ 72.918433, 19.1277 ] ] ] } },
{ "type": "Feature", "properties": { "node_id": "J246", "demand_lps": 0.2979 }, "geometry": { "type": "Polygon", "coordinates": [ [ [ 72.918804, 19.134524 ], [ 72.918742, 19.134556 ], [ 72.918675, 19.134632 ], [ 72.918265, 19.136322 ], [ 72.9183, 19.136535 ], [ 72.918791, 19.137204 ], [ 72.918912, 19.137208 ], [ 72.919203, 19.134562 ], [ 72.918804, 19.134524 ] ] ] } },
{ "type": "Feature", "properties": { "node_id": "J247", "demand_lps": 0.09 }, "geometry": { "type": "Polygon", "coordinates": [ [ [ 72.918398, 19.128621 ], [ 72.918349, 19.128856 ], [ 72.919396, 19.128699 ], [ 72.919447, 19.128659 ], [ 72.919102, 19.128172 ], [ 72.918653, 19.128286 ], [ 72.918548, 19.128326 ], [ 72.918398, 19.128621 ] ] ] } },
{ "type": "Feature", "properties": { "node_id": "J248", "demand_lps": 0.0764 }, "geometry": { "type": "Polygon", "coordinates": [ [ [ 72.918624, 19.129422 ], [ 72.918879, 19.129317 ], [ 72.919276, 19.128878 ], [ 72.919396, 19.128699 ], [ 72.918349, 19.128856 ], [ 72.918317, 19.1289 ], [ 72.918624, 19.129422 ] ] ] } },
{ "type": "Feature", "properties": { "node_id": "J249", "demand_lps": 0.1066 }, "geometry": { "type": "Polygon", "coordinates": [ [ [ 72.918568, 19.133959 ], [ 72.919032, 19.132489 ], [ 72.918541, 19.132434 ], [ 72.918364, 19.132947 ], [ 72.91839, 19.133403 ], [ 72.918568, 19.133959 ] ] ] } },
{ "type": "Feature", "properties": { "node_id": "J250", "demand_lps": 0.0743 }, "geometry": { "type": "Polygon", "coordinates": [ [ [ 72.918541, 19.132434 ], [ 72.919032, 19.132489 ], [ 72.919428, 19.132455 ], [ 72.919442, 19.132296 ], [ 72.918501, 19.13185 ], [ 72.91843, 19.132163 ], [ 72.918541, 19.132434 ] ] ] } },
{ "type": "Feature", "properties": { "node_id": "J251", "demand_lps": 0.0638 }, "geometry": { "type": "Polygon", "coordinates": [ [ [ 72.918501, 19.131807 ], [ 72.919074, 19.131764 ], [ 72.919025, 19.131351 ], [ 72.918586, 19.131252 ], [ 72.918361, 19.131242 ], [ 72.918344, 19.131457 ], [ 72.918501, 19.131807 ] ] ] } },
{ "type": "Feature", "properties": { "node_id": "J252", "demand_lps": 0.2224 }, "geometry": { "type": "Polygon", "coordinates": [ [ [ 72.919032, 19.132489 ], [ 72.918568, 19.133959 ], [ 72.918637, 19.134224 ], [ 72.918804, 19.134524 ], [ 72.919203, 19.134562 ], [ 72.919408, 19.132692 ], [ 72.919428, 19.132455 ], [ 72.919032, 19.132489 ] ] ] } },
{ "type": "Feature", "properties": { "node_id": "J253", "demand_lps": 0.0599 }, "geometry": { "type": "Polygon", "coordinates": [ [ [ 72.918361, 19.131242 ], [ 72.918586, 19.131252 ], [ 72.918951, 19.131125 ], [ 72.919093, 19.13104 ], [ 72.919054, 19.13085 ], [ 72.918183, 19.13076 ], [ 72.918361, 19.131242 ] ] ] } },
{ "type": "Feature", "properties": { "node_id": "J254", "demand_lps": 0.0553 }, "geometry": { "type": "Polygon", "coordinates": [ [ [ 72.918501, 19.131807 ], [ 72.918501, 19.13185 ], [ 72.919442, 19.132296 ], [ 72.919485, 19.13179 ], [ 72.919074, 19.131764 ], [ 72.918501, 19.131807 ] ] ] } },
{ "type": "Feature", "properties": { "node_id": "J255", "demand_lps": 0.0805 }, "geometry": { "type": "Polygon", "coordinates": [ [ [ 72.918052, 19.130537 ], [ 72.918939, 19.130547 ], [ 72.918946, 19.130544 ], [ 72.919132, 19.130454 ], [ 72.919095, 19.130167 ], [ 72.918314, 19.130105 ], [ 72.917946, 19.13041 ], [ 72.918052, 19.130537 ] ] ] } },
{ "type": "Feature", "properties": { "node_id": "J256", "demand_lps": 0.0487 }, "geometry": { "type": "Polygon", "coordinates": [ [ [ 72.919054, 19.13085 ], [ 72.919106, 19.130842 ], [ 72.91911, 19.130644 ], [ 72.918939, 19.130547 ], [ 72.918052, 19.130537 ], [ 72.918183, 19.13076 ], [ 72.919054, 19.13085 ] ] ] } },
{ "type": "Feature", "properties": { "node_id": "J257", "demand_lps": 0.0489 }, "geometry": { "type": "Polygon", "coordinates": [ [ [ 72.918879, 19.129317 ], [ 72.918624, 19.129422 ], [ 72.918516, 19.129802 ], [ 72.918991, 19.129776 ], [ 72.919358, 19.129563 ], [ 72.919326, 19.129534 ], [ 72.918879, 19.129317 ] ] ] } },
{ "type": "Feature", "properties": { "node_id": "J258", "demand_lps": 0.0317 }, "geometry": { "type": "Polygon", "coordinates": [ [ [ 72.919127, 19.131357 ], [ 72.919025, 19.131351 ], [ 72.919074, 19.131764 ], [ 72.919485, 19.13179 ], [ 72.91951, 19.131495 ], [ 72.919127, 19.131357 ] ] ] } },
{ "type": "Feature", "properties": { "node_id": "J259", "demand_lps": 0.0492 }, "geometry": { "type": "Polygon", "coordinates": [ [ [ 72.919095, 19.130167 ], [ 72.919109, 19.130166 ], [ 72.919178, 19.129863 ], [ 72.918991, 19.129776 ], [ 72.918516, 19.129802 ], [ 72.918314, 19.130105 ], [ 72.919095, 19.130167 ] ] ] } },
{ "type": "Feature", "properties": { "node_id": "J260", "demand_lps": 0.0158 }, "geometry": { "type": "Polygon", "coordinates": [ [ [ 72.919025, 19.131351 ], [ 72.919127, 19.131357 ], [ 72.919169, 19.131161 ], [ 72.919156, 19.131139 ], [ 72.918951, 19.131125 ], [ 72.918586, 19.131252 ], [ 72.919025, 19.131351 ] ] ] } },
{ "type": "Feature", "properties": { "node_id": "J261", "demand_lps": 0.0026 }, "geometry": { "type": "Polygon", "coordinates": [ [ [ 72.918951, 19.131125 ], [ 72.919156, 19.131139 ], [ 72.919172, 19.131045 ], [ 72.919093, 19.13104 ], [ 72.918951, 19.131125 ] ] ] } },
{ "type": "Feature", "properties": { "node_id": "J262", "demand_lps": 0.0098 }, "geometry": { "type": "Polygon", "coordinates": [ [ [ 72.919093, 19.13104 ], [ 72.919172, 19.131045 ], [ 72.919477, 19.130871 ], [ 72.919457, 19.130865 ], [ 72.919106, 19.130842 ], [ 72.919054, 19.13085 ], [ 72.919093, 19.13104 ] ] ] } },
{ "type": "Feature", "properties": { "node_id": "J263", "demand_lps": 0.0087 }, "geometry": { "type": "Polygon", "coordinates": [ [ [ 72.919106, 19.130842 ], [ 72.919457, 19.130865 ], [ 72.91921, 19.13065 ], [ 72.91911, 19.130644 ], [ 72.919106, 19.130842 ] ] ] } },
{ "type": "Feature", "properties": { "node_id": "J264", "demand_lps": 0.0032 }, "geometry": { "type": "Polygon", "coordinates": [ [ [ 72.91911, 19.130644 ], [ 72.91921, 19.13065 ], [ 72.919207, 19.130571 ], [ 72.919199, 19.130561 ], [ 72.918946, 19.130544 ], [ 72.918939, 19.130547 ], [ 72.91911, 19.130644 ] ] ] } },
{ "type": "Feature", "properties": { "node_id": "J265", "demand_lps": 0.0031 }, "geometry": { "type": "Polygon", "coordinates": [ [ [ 72.918946, 19.130544 ], [ 72.919199, 19.130561 ], [ 72.91919, 19.130458 ], [ 72.919132, 19.130454 ], [ 72.918946, 19.130544 ] ] ] } },
{ "type": "Feature", "properties": { "node_id": "J266", "demand_lps": 0.0189 }, "geometry": { "type": "Polygon", "coordinates": [ [ [ 72.919095, 19.130167 ], [ 72.919132, 19.130454 ], [ 72.91919, 19.130458 ], [ 72.919614, 19.130267 ], [ 72.91962, 19.130199 ], [ 72.919109, 19.130166 ], [ 72.919095, 19.130167 ] ] ] } },
{ "type": "Feature", "properties": { "node_id": "J267", "demand_lps": 0.0292 }, "geometry": { "type": "Polygon", "coordinates": [ [ [ 72.919109, 19.130166 ], [ 72.91962, 19.130199 ], [ 72.919646, 19.129894 ], [ 72.919178, 19.129863 ], [ 72.919109, 19.130166 ] ] ] } },
{ "type": "Feature", "properties": { "node_id": "J268", "demand_lps": 0.0266 }, "geometry": { "type": "Polygon", "coordinates": [ [ [ 72.919178, 19.129863 ], [ 72.919646, 19.129894 ], [ 72.919661, 19.129718 ], [ 72.919368, 19.129567 ], [ 72.919358, 19.129563 ], [ 72.918991, 19.129776 ], [ 72.919178, 19.129863 ] ] ] } },
{ "type": "Feature", "properties": { "node_id": "J269", "demand_lps": 0.0142 }, "geometry": { "type": "Polygon", "coordinates": [ [ [ 72.919169, 19.131161 ], [ 72.919543, 19.131103 ], [ 72.919562, 19.130879 ], [ 72.919477, 19.130871 ], [ 72.919172, 19.131045 ], [ 72.919156, 19.131139 ], [ 72.919169, 19.131161 ] ] ] } },
{ "type": "Feature", "properties": { "node_id": "J270", "demand_lps": 0.0274 }, "geometry": { "type": "Polygon", "coordinates": [ [ [ 72.919326, 19.129534 ], [ 72.919276, 19.128878 ], [ 72.918879, 19.129317 ], [ 72.919326, 19.129534 ] ] ] } },
{ "type": "Feature", "properties": { "node_id": "J271", "demand_lps": 0.0219 }, "geometry": { "type": "Polygon", "coordinates": [ [ [ 72.919169, 19.131161 ], [ 72.919127, 19.131357 ], [ 72.91951, 19.131495 ], [ 72.919543, 19.131103 ], [ 72.919169, 19.131161 ] ] ] } },
{ "type": "Feature", "properties": { "node_id": "J272", "demand_lps": 0.0102 }, "geometry": { "type": "Polygon", "coordinates": [ [ [ 72.919207, 19.130571 ], [ 72.919603, 19.130407 ], [ 72.919614, 19.130267 ], [ 72.91919, 19.130458 ], [ 72.919199, 19.130561 ], [ 72.919207, 19.130571 ] ] ] } },
{ "type": "Feature", "properties": { "node_id": "J273", "demand_lps": 0.022 }, "geometry": { "type": "Polygon", "coordinates": [ [ [ 72.919477, 19.130871 ], [ 72.919562, 19.130879 ], [ 72.919603, 19.130407 ], [ 72.919207, 19.130571 ], [ 72.91921, 19.13065 ], [ 72.919457, 19.130865 ], [ 72.919477, 19.130871 ] ] ] } },
{ "type": "Feature", "properties": { "node_id": "J274", "demand_lps": 0.0249 }, "geometry": { "type": "Polygon", "coordinates": [ [ [ 72.919276, 19.128878 ], [ 72.919326, 19.129534 ], [ 72.919358, 19.129563 ], [ 72.919368, 19.129567 ], [ 72.919535, 19.128751 ], [ 72.919448, 19.128661 ], [ 72.919447, 19.128659 ], [ 72.919396, 19.128699 ], [ 72.919276, 19.128878 ] ] ] } },
{ "type": "Feature", "properties": { "node_id": "J275", "demand_lps": 0.0412 }, "geometry": { "type": "Polygon", "coordinates": [ [ [ 72.919368, 19.129567 ], [ 72.919661, 19.129718 ], [ 72.919727, 19.128947 ], [ 72.919535, 19.128751 ], [ 72.919368, 19.129567 ] ] ] } }
]
}
