{
"type": "FeatureCollection",
"name": "dma",
"crs": { "type": "name", "properties": { "name": "urn:ogc:def:crs:OGC:1.3:CRS84" } },
"xy_coordinate_resolution": 1e-06,
"features": [
{ "type": "Feature", "properties": { "cluster": 1 }, "geometry": { "type": "Polygon", "coordinates": [ [ [ 72.91546, 19.133704 ], [ 72.913814, 19.130885 ], [ 72.91347, 19.130701 ], [ 72.91308, 19.130947 ], [ 72.910545, 19.129999 ], [ 72.910386, 19.130365 ], [ 72.911266, 19.131197 ], [ 72.911302, 19.132045 ], [ 72.910509, 19.132711 ], [ 72.909559, 19.132428 ], [ 72.908995, 19.132461 ], [ 72.909277, 19.13311 ], [ 72.908133, 19.133442 ], [ 72.907464, 19.134524 ], [ 72.907129, 19.134623 ], [ 72.906706, 19.133359 ], [ 72.905809, 19.13276 ], [ 72.904928, 19.13301 ], [ 72.903696, 19.134091 ], [ 72.903696, 19.135122 ], [ 72.903757, 19.135738 ], [ 72.905967, 19.136395 ], [ 72.907402, 19.136786 ], [ 72.912156, 19.13805 ], [ 72.912185, 19.138066 ], [ 72.91546, 19.133704 ] ] ] } },
{ "type": "Feature", "properties": { "cluster": 2 }, "geometry": { "type": "Polygon", "coordinates": [ [ [ 72.91546, 19.133704 ], [ 72.912185, 19.138066 ], [ 72.913775, 19.138931 ], [ 72.914708, 19.139879 ], [ 72.915157, 19.140753 ], [ 72.915316, 19.140869 ], [ 72.915598, 19.140769 ], [ 72.915879, 19.14062 ], [ 72.916117, 19.14062 ], [ 72.916918, 19.140312 ], [ 72.917147, 19.139863 ], [ 72.917059, 19.138491 ], [ 72.917658, 19.138299 ], [ 72.917481, 19.137609 ], [ 72.917891, 19.137172 ], [ 72.918912, 19.137208 ], [ 72.919149, 19.135054 ], [ 72.91546, 19.133704 ] ] ] } },
{ "type": "Feature", "properties": { "cluster": 3 }, "geometry": { "type": "Polygon", "coordinates": [ [ [ 72.915955, 19.125095 ], [ 72.912696, 19.124142 ], [ 72.911835, 19.123941 ], [ 72.911452, 19.12393 ], [ 72.909648, 19.124162 ], [ 72.909315, 19.124145 ], [ 72.908886, 19.12401 ], [ 72.908704, 19.123859 ], [ 72.908346, 19.124626 ], [ 72.908337, 19.126232 ], [ 72.908848, 19.126814 ], [ 72.909174, 19.126864 ], [ 72.909658, 19.124942 ], [ 72.910459, 19.124826 ], [ 72.912655, 19.125369 ], [ 72.913802, 19.126157 ], [ 72.913904, 19.127479 ], [ 72.915955, 19.125095 ] ] ] } },
{ "type": "Feature", "properties": { "cluster": 4 }, "geometry": { "type": "Polygon", "coordinates": [ [ [ 72.913814, 19.130885 ], [ 72.91546, 19.133704 ], [ 72.919149, 19.135054 ], [ 72.919408, 19.132692 ], [ 72.919727, 19.128947 ], [ 72.919448, 19.128661 ], [ 72.91931, 19.128466 ], [ 72.913814, 19.130885 ] ] ] } },
{ "type": "Feature", "properties": { "cluster": 5 }, "geometry": { "type": "Polygon", "coordinates": [ [ [ 72.913904, 19.127479 ], [ 72.913916, 19.127637 ], [ 72.913502, 19.130681 ], [ 72.91347, 19.130701 ], [ 72.913814, 19.130885 ], [ 72.91931, 19.128466 ], [ 72.918987, 19.12801 ], [ 72.916563, 19.125273 ], [ 72.915955, 19.125095 ], [ 72.913904, 19.127479 ] ] ] } }
]
}
