{
"type": "FeatureCollection",
"name": "sensors",
"crs": { "type": "name", "properties": { "name": "urn:ogc:def:crs:OGC:1.3:CRS84" } },
"xy_coordinate_resolution": 1e-06,
"features": [
{ "type": "Feature", "properties": { "node_id": "J27", "cluster": 1, "elevation_m": 44.82, "pressure_m": 62.14, "demand_lps": 0.6309, "degree": 1, "node_type": "dead_end", "risk_flags": "StagnationRisk|ServiceLevelRisk", "selection_reason": "dead end; elev 44.8 m > DMA mean 44.6; demand 0.6309 L/s > DMA mean 0.2977" }, "geometry": { "type": "Point", "coordinates": [ 72.912694, 19.13588 ] } },
{ "type": "Feature", "properties": { "node_id": "J40", "cluster": 1, "elevation_m": 47.79, "pressure_m": 28.71, "demand_lps": 0.413, "degree": 1, "node_type": "dead_end", "risk_flags": "StagnationRisk|IntrusionRisk|ServiceLevelRisk", "selection_reason": "dead end; elev 47.8 m > DMA mean 44.6; low pressure 28.7 m (<= P20 52.72); demand 0.4130 L/s > DMA mean 0.2977" }, "geometry": { "type": "Point", "coordinates": [ 72.913903, 19.133884 ] } },
{ "type": "Feature", "properties": { "node_id": "J8", "cluster": 1, "elevation_m": 45.92, "pressure_m": 60.03, "demand_lps": 0.3221, "degree": 3, "node_type": "junction", "risk_flags": "ServiceLevelRisk", "selection_reason": "junction; elev 45.9 m > DMA mean 44.6; demand 0.3221 L/s > DMA mean 0.2977" }, "geometry": { "type": "Point", "coordinates": [ 72.910751, 19.136195 ] } },
{ "type": "Feature", "properties": { "node_id": "J3", "cluster": 1, "elevation_m": 45.3, "pressure_m": 60.37, "demand_lps": 0.3013, "degree": 5, "node_type": "junction", "risk_flags": "ServiceLevelRisk", "selection_reason": "junction; elev 45.3 m > DMA mean 44.6; demand 0.3013 L/s > DMA mean 0.2977" }, "geometry": { "type": "Point", "coordinates": [ 72.910243, 19.135588 ] } },
{ "type": "Feature", "properties": { "node_id": "J41", "cluster": 1, "elevation_m": 46.95, "pressure_m": 22.63, "demand_lps": 0.2841, "degree": 3, "node_type": "junction", "risk_flags": "IntrusionRisk", "selection_reason": "junction; elev 47.0 m > DMA mean 44.6; low pressure 22.6 m (<= P20 52.72)" }, "geometry": { "type": "Point", "coordinates": [ 72.913927, 19.133048 ] } },
{ "type": "Feature", "properties": { "node_id": "J149", "cluster": 2, "elevation_m": 60.0, "pressure_m": 49.86, "demand_lps": 0.379, "degree": 1, "node_type": "dead_end", "risk_flags": "StagnationRisk|ServiceLevelRisk", "selection_reason": "dead end; elev 60.0 m > DMA mean 54.9; demand 0.3790 L/s > DMA mean 0.0623" }, "geometry": { "type": "Point", "coordinates": [ 72.915949, 19.138884 ] } },
{ "type": "Feature", "properties": { "node_id": "J246", "cluster": 2, "elevation_m": 56.32, "pressure_m": 49.61, "demand_lps": 0.2979, "degree": 1, "node_type": "dead_end", "risk_flags": "StagnationRisk|ServiceLevelRisk", "selection_reason": "dead end; elev 56.3 m > DMA mean 54.9; demand 0.2979 L/s > DMA mean 0.0623" }, "geometry": { "type": "Point", "coordinates": [ 72.918639, 19.136249 ] } },
{ "type": "Feature", "properties": { "node_id": "J216", "cluster": 2, "elevation_m": 66.61, "pressure_m": 43.17, "demand_lps": 0.1048, "degree": 1, "node_type": "dead_end", "risk_flags": "StagnationRisk|IntrusionRisk|ServiceLevelRisk", "selection_reason": "dead end; elev 66.6 m > DMA mean 54.9; low pressure 43.2 m (<= P20 49.51); demand 0.1047 L/s > DMA mean 0.0623" }, "geometry": { "type": "Point", "coordinates": [ 72.917546, 19.137985 ] } },
{ "type": "Feature", "properties": { "node_id": "J212", "cluster": 2, "elevation_m": 63.58, "pressure_m": 41.92, "demand_lps": 0.0924, "degree": 1, "node_type": "dead_end", "risk_flags": "StagnationRisk|IntrusionRisk|ServiceLevelRisk", "selection_reason": "dead end; elev 63.6 m > DMA mean 54.9; low pressure 41.9 m (<= P20 49.51); demand 0.0924 L/s > DMA mean 0.0623" }, "geometry": { "type": "Point", "coordinates": [ 72.917362, 19.137421 ] } },
{ "type": "Feature", "properties": { "node_id": "J161", "cluster": 2, "elevation_m": 57.52, "pressure_m": 47.98, "demand_lps": 0.0653, "degree": 1, "node_type": "dead_end", "risk_flags": "StagnationRisk|IntrusionRisk|ServiceLevelRisk", "selection_reason": "dead end; elev 57.5 m > DMA mean 54.9; low pressure 48.0 m (<= P20 49.51); demand 0.0653 L/s > DMA mean 0.0623" }, "geometry": { "type": "Point", "coordinates": [ 72.916254, 19.136836 ] } },
{ "type": "Feature", "properties": { "node_id": "J11", "cluster": 3, "elevation_m": 44.73, "pressure_m": 25.63, "demand_lps": 0.1627, "degree": 3, "node_type": "junction", "risk_flags": "IntrusionRisk|ServiceLevelRisk", "selection_reason": "junction; elev 44.7 m > DMA mean 42.5; low pressure 25.6 m (<= P20 27.81); demand 0.1627 L/s > DMA mean 0.0409" }, "geometry": { "type": "Point", "coordinates": [ 72.911692, 19.124754 ] } },
{ "type": "Feature", "properties": { "node_id": "J10", "cluster": 3, "elevation_m": 46.4, "pressure_m": 23.84, "demand_lps": 0.1562, "degree": 1, "node_type": "dead_end", "risk_flags": "StagnationRisk|IntrusionRisk|ServiceLevelRisk", "selection_reason": "dead end; elev 46.4 m > DMA mean 42.5; low pressure 23.8 m (<= P20 27.81); demand 0.1562 L/s > DMA mean 0.0409" }, "geometry": { "type": "Point", "coordinates": [ 72.911581, 19.124945 ] } },
{ "type": "Feature", "properties": { "node_id": "J69", "cluster": 3, "elevation_m": 43.95, "pressure_m": 31.76, "demand_lps": 0.0979, "degree": 1, "node_type": "dead_end", "risk_flags": "StagnationRisk|ServiceLevelRisk", "selection_reason": "dead end; elev 44.0 m > DMA mean 42.5; demand 0.0979 L/s > DMA mean 0.0409" }, "geometry": { "type": "Point", "coordinates": [ 72.914635, 19.12511 ] } },
{ "type": "Feature", "properties": { "node_id": "J23", "cluster": 3, "elevation_m": 42.66, "pressure_m": 27.74, "demand_lps": 0.0688, "degree": 3, "node_type": "junction", "risk_flags": "IntrusionRisk|ServiceLevelRisk", "selection_reason": "junction; elev 42.7 m > DMA mean 42.5; low pressure 27.7 m (<= P20 27.81); demand 0.0688 L/s > DMA mean 0.0409" }, "geometry": { "type": "Point", "coordinates": [ 72.91261, 19.124523 ] } },
{ "type": "Feature", "properties": { "node_id": "J12", "cluster": 3, "elevation_m": 43.89, "pressure_m": 26.47, "demand_lps": 0.0439, "degree": 1, "node_type": "dead_end", "risk_flags": "StagnationRisk|IntrusionRisk|ServiceLevelRisk", "selection_reason": "dead end; elev 43.9 m > DMA mean 42.5; low pressure 26.5 m (<= P20 27.81); demand 0.0439 L/s > DMA mean 0.0409" }, "geometry": { "type": "Point", "coordinates": [ 72.91191, 19.124757 ] } },
{ "type": "Feature", "properties": { "node_id": "J185", "cluster": 4, "elevation_m": 52.55, "pressure_m": 15.0, "demand_lps": 0.4453, "degree": 1, "node_type": "dead_end", "risk_flags": "StagnationRisk|IntrusionRisk|ServiceLevelRisk", "selection_reason": "dead end; elev 52.5 m > DMA mean 50.9; low pressure 15.0 m (<= P20 38.28); demand 0.4453 L/s > DMA mean 0.0887" }, "geometry": { "type": "Point", "coordinates": [ 72.916784, 19.131046 ] } },
{ "type": "Feature", "properties": { "node_id": "J206", "cluster": 4, "elevation_m": 53.87, "pressure_m": 51.01, "demand_lps": 0.28, "degree": 1, "node_type": "dead_end", "risk_flags": "StagnationRisk|LeakageRisk|ServiceLevelRisk", "selection_reason": "dead end; elev 53.9 m > DMA mean 50.9; high pressure 51.0 m (>= 46.39); demand 0.2800 L/s > DMA mean 0.0887" }, "geometry": { "type": "Point", "coordinates": [ 72.91719, 19.133719 ] } },
{ "type": "Feature", "properties": { "node_id": "J220", "cluster": 4, "elevation_m": 54.43, "pressure_m": 36.44, "demand_lps": 0.2345, "degree": 1, "node_type": "dead_end", "risk_flags": "StagnationRisk|IntrusionRisk|ServiceLevelRisk", "selection_reason": "dead end; elev 54.4 m > DMA mean 50.9; low pressure 36.4 m (<= P20 38.28); demand 0.2345 L/s > DMA mean 0.0887" }, "geometry": { "type": "Point", "coordinates": [ 72.917666, 19.131454 ] } },
{ "type": "Feature", "properties": { "node_id": "J180", "cluster": 4, "elevation_m": 55.38, "pressure_m": 37.22, "demand_lps": 0.2145, "degree": 1, "node_type": "dead_end", "risk_flags": "StagnationRisk|IntrusionRisk|ServiceLevelRisk", "selection_reason": "dead end; elev 55.4 m > DMA mean 50.9; low pressure 37.2 m (<= P20 38.28); demand 0.2145 L/s > DMA mean 0.0887" }, "geometry": { "type": "Point", "coordinates": [ 72.916609, 19.13328 ] } },
{ "type": "Feature", "properties": { "node_id": "J176", "cluster": 4, "elevation_m": 54.6, "pressure_m": 38.12, "demand_lps": 0.1738, "degree": 1, "node_type": "dead_end", "risk_flags": "StagnationRisk|IntrusionRisk|ServiceLevelRisk", "selection_reason": "dead end; elev 54.6 m > DMA mean 50.9; low pressure 38.1 m (<= P20 38.28); demand 0.1738 L/s > DMA mean 0.0887" }, "geometry": { "type": "Point", "coordinates": [ 72.916545, 19.132621 ] } },
{ "type": "Feature", "properties": { "node_id": "J122", "cluster": 4, "elevation_m": 51.14, "pressure_m": 18.53, "demand_lps": 0.1651, "degree": 5, "node_type": "junction", "risk_flags": "IntrusionRisk|ServiceLevelRisk", "selection_reason": "junction; elev 51.1 m > DMA mean 50.9; low pressure 18.5 m (<= P20 38.28); demand 0.1651 L/s > DMA mean 0.0887" }, "geometry": { "type": "Point", "coordinates": [ 72.915245, 19.130409 ] } },
{ "type": "Feature", "properties": { "node_id": "J120", "cluster": 4, "elevation_m": 51.31, "pressure_m": 18.36, "demand_lps": 0.1557, "degree": 4, "node_type": "junction", "risk_flags": "IntrusionRisk|ServiceLevelRisk", "selection_reason": "junction; elev 51.3 m > DMA mean 50.9; low pressure 18.4 m (<= P20 38.28); demand 0.1557 L/s > DMA mean 0.0887" }, "geometry": { "type": "Point", "coordinates": [ 72.915229, 19.130703 ] } },
{ "type": "Feature", "properties": { "node_id": "J188", "cluster": 4, "elevation_m": 54.52, "pressure_m": 38.28, "demand_lps": 0.0975, "degree": 4, "node_type": "junction", "risk_flags": "IntrusionRisk|ServiceLevelRisk", "selection_reason": "junction; elev 54.5 m > DMA mean 50.9; low pressure 38.3 m (<= P20 38.28); demand 0.0975 L/s > DMA mean 0.0887" }, "geometry": { "type": "Point", "coordinates": [ 72.916852, 19.132287 ] } },
{ "type": "Feature", "properties": { "node_id": "J123", "cluster": 5, "elevation_m": 50.56, "pressure_m": 19.82, "demand_lps": 0.3149, "degree": 3, "node_type": "junction", "risk_flags": "IntrusionRisk|ServiceLevelRisk", "selection_reason": "junction; elev 50.6 m > DMA mean 48.4; low pressure 19.8 m (<= P20 32.49); demand 0.3149 L/s > DMA mean 0.0437" }, "geometry": { "type": "Point", "coordinates": [ 72.915266, 19.129522 ] } },
{ "type": "Feature", "properties": { "node_id": "J247", "cluster": 5, "elevation_m": 49.29, "pressure_m": 39.15, "demand_lps": 0.09, "degree": 3, "node_type": "junction", "risk_flags": "LeakageRisk|ServiceLevelRisk", "selection_reason": "junction; elev 49.3 m > DMA mean 48.4; high pressure 39.1 m (>= 35.96); demand 0.0900 L/s > DMA mean 0.0437" }, "geometry": { "type": "Point", "coordinates": [ 72.918756, 19.128605 ] } },
{ "type": "Feature", "properties": { "node_id": "J138", "cluster": 5, "elevation_m": 51.72, "pressure_m": 30.76, "demand_lps": 0.0723, "degree": 3, "node_type": "junction", "risk_flags": "IntrusionRisk|ServiceLevelRisk", "selection_reason": "junction; elev 51.7 m > DMA mean 48.4; low pressure 30.8 m (<= P20 32.49); demand 0.0723 L/s > DMA mean 0.0437" }, "geometry": { "type": "Point", "coordinates": [ 72.915806, 19.128253 ] } },
{ "type": "Feature", "properties": { "node_id": "J203", "cluster": 5, "elevation_m": 50.0, "pressure_m": 36.0, "demand_lps": 0.0516, "degree": 1, "node_type": "dead_end", "risk_flags": "StagnationRisk|LeakageRisk|ServiceLevelRisk", "selection_reason": "dead end; elev 50.0 m > DMA mean 48.4; high pressure 36.0 m (>= 35.96); demand 0.0516 L/s > DMA mean 0.0437" }, "geometry": { "type": "Point", "coordinates": [ 72.917194, 19.12658 ] } },
{ "type": "Feature", "properties": { "node_id": "J239", "cluster": 5, "elevation_m": 50.15, "pressure_m": 36.99, "demand_lps": 0.0461, "degree": 1, "node_type": "dead_end", "risk_flags": "StagnationRisk|LeakageRisk|ServiceLevelRisk", "selection_reason": "dead end; elev 50.1 m > DMA mean 48.4; high pressure 37.0 m (>= 35.96); demand 0.0461 L/s > DMA mean 0.0437" }, "geometry": { "type": "Point", "coordinates": [ 72.918128, 19.127653 ] } },
{ "type": "Feature", "properties": { "node_id": "J217", "cluster": 5, "elevation_m": 50.65, "pressure_m": 35.96, "demand_lps": 0.0451, "degree": 1, "node_type": "dead_end", "risk_flags": "StagnationRisk|LeakageRisk|ServiceLevelRisk", "selection_reason": "dead end; elev 50.6 m > DMA mean 48.4; high pressure 36.0 m (>= 35.96); demand 0.0451 L/s > DMA mean 0.0437" }, "geometry": { "type": "Point", "coordinates": [ 72.917684, 19.12709 ] } }
]
}
